{
"type": "FeatureCollection",
"name": "Contrucciones_que_coinciden",
"crs": { "type": "name", "properties": { "name": "urn:ogc:def:crs:OGC:1.3:CRS84" } },
"features": [
{ "type": "Feature", "properties": { "fid": 10, "id": 5, "FOTOS": "DCIM/JPEG_20260219143205343.jpg", "NOMBRE": "Heladería Nanice Cream", "fid_2": 859, "objectd": 805.0, "codigo": "257360100000000150011000000000", "shp_Lng": 300.90063174599999, "shap_Ar": 2621.9128054299999, "NOMBRE_2": "QUINTERO BALLEN CESAR-ALBERTO", "ID_Unico": null, "LONGITUD X": -73.796997737838964, "LONGITUD Y": 5.0442700237172264 }, "geometry": { "type": "MultiPoint", "coordinates": [ [ -73.796997737838964, 5.044270023717226 ] ] } },
{ "type": "Feature", "properties": { "fid": 18, "id": 13, "FOTOS": "DCIM/JPEG_20260219143929034.jpg", "NOMBRE": "Campo de Tejo Covadonga", "fid_2": 399, "objectd": 381.0, "codigo": "257360100000000150004000000000", "shp_Lng": 99.799821748300005, "shap_Ar": 542.17801191499996, "NOMBRE_2": "CLUB-COVADONGA", "ID_Unico": null, "LONGITUD X": -73.797571280755534, "LONGITUD Y": 5.0439056877510593 }, "geometry": { "type": "MultiPoint", "coordinates": [ [ -73.797571280755534, 5.043905687751059 ] ] } },
{ "type": "Feature", "properties": { "fid": 19, "id": 14, "FOTOS": "DCIM/JPEG_20260219144005612.jpg", "NOMBRE": "Cootranscovadonga sesquile", "fid_2": 399, "objectd": 381.0, "codigo": "257360100000000150004000000000", "shp_Lng": 99.799821748300005, "shap_Ar": 542.17801191499996, "NOMBRE_2": "CLUB-COVADONGA", "ID_Unico": null, "LONGITUD X": -73.797644357203623, "LONGITUD Y": 5.043939691908033 }, "geometry": { "type": "MultiPoint", "coordinates": [ [ -73.797644357203623, 5.043939691908033 ] ] } },
{ "type": "Feature", "properties": { "fid": 37, "id": null, "FOTOS": "DCIM/JPEG_20260219145549387.jpg", "NOMBRE": "Opti Corp", "fid_2": 715, "objectd": 661.0, "codigo": "257360100000000140020000000000", "shp_Lng": 64.386876513700003, "shap_Ar": 220.56328964100001, "NOMBRE_2": "GONZALEZ GONZALEZ MARIA-MERCEDES", "ID_Unico": null, "LONGITUD X": -73.797529730661921, "LONGITUD Y": 5.0449862660787694 }, "geometry": { "type": "MultiPoint", "coordinates": [ [ -73.797529730661921, 5.044986266078769 ] ] } },
{ "type": "Feature", "properties": { "fid": 49, "id": null, "FOTOS": "DCIM/JPEG_20260219150506025.jpg", "NOMBRE": "JB Calsado", "fid_2": 437, "objectd": 815.0, "codigo": "257360100000000150028000000000", "shp_Lng": 42.399713736800003, "shap_Ar": 100.77061976, "NOMBRE_2": "CECILIA RODRIGUEZ BUSTOS", "ID_Unico": null, "LONGITUD X": -73.797549714226975, "LONGITUD Y": 5.0445444098269956 }, "geometry": { "type": "MultiPoint", "coordinates": [ [ -73.797549714226975, 5.044544409826996 ] ] } },
{ "type": "Feature", "properties": { "fid": 76, "id": null, "FOTOS": "DCIM/JPEG_20260219152809453.jpg", "NOMBRE": "Líder comunicaciones", "fid_2": 368, "objectd": 332.0, "codigo": "257360100000000190009000000000", "shp_Lng": 86.139915272099998, "shap_Ar": 430.78667286000001, "NOMBRE_2": "ALAGUNA HERNANDEZ DENISSE", "ID_Unico": null, "LONGITUD X": -73.797117902145033, "LONGITUD Y": 5.0437591742544976 }, "geometry": { "type": "MultiPoint", "coordinates": [ [ -73.797117902145033, 5.043759174254498 ] ] } },
{ "type": "Feature", "properties": { "fid": 78, "id": null, "FOTOS": "DCIM/JPEG_20260219152937644.jpg", "NOMBRE": "Pizzeria ", "fid_2": 368, "objectd": 332.0, "codigo": "257360100000000190009000000000", "shp_Lng": 86.139915272099998, "shap_Ar": 430.78667286000001, "NOMBRE_2": "ALAGUNA HERNANDEZ DENISSE", "ID_Unico": null, "LONGITUD X": -73.797158124381198, "LONGITUD Y": 5.0436786029498784 }, "geometry": { "type": "MultiPoint", "coordinates": [ [ -73.797158124381198, 5.043678602949878 ] ] } },
{ "type": "Feature", "properties": { "fid": 84, "id": null, "FOTOS": "DCIM/JPEG_20260219153426332.jpg", "NOMBRE": "Mundial de hierros y perfiles la sabana", "fid_2": 48, "objectd": 48.0, "codigo": "257360100000000180007000000000", "shp_Lng": 55.5959844064, "shap_Ar": 183.93557004600001, "NOMBRE_2": "GONZALEZ CARDENAS ELDA-MARINA", "ID_Unico": null, "LONGITUD X": -73.796985327808343, "LONGITUD Y": 5.0434530356899172 }, "geometry": { "type": "MultiPoint", "coordinates": [ [ -73.796985327808343, 5.043453035689917 ] ] } },
{ "type": "Feature", "properties": { "fid": 100, "id": null, "FOTOS": "DCIM/JPEG_20260219154455812.jpg", "NOMBRE": "Droguería sesquifarma", "fid_2": 385, "objectd": 349.0, "codigo": "257360100000000230003000000000", "shp_Lng": 61.099683934200002, "shap_Ar": 103.459453975, "NOMBRE_2": "HERMANN BUSTOS MUNOZ", "ID_Unico": null, "LONGITUD X": -73.7963035037004, "LONGITUD Y": 5.0440095112141821 }, "geometry": { "type": "MultiPoint", "coordinates": [ [ -73.7963035037004, 5.044009511214182 ] ] } },
{ "type": "Feature", "properties": { "fid": 101, "id": null, "FOTOS": "DCIM/JPEG_20260219154542588.jpg", "NOMBRE": "Central ferretera E & M", "fid_2": 396, "objectd": 360.0, "codigo": "257360100000000190002000000000", "shp_Lng": 163.81035956400001, "shap_Ar": 644.63579541900003, "NOMBRE_2": "INVERSIONES JAZMU SAS", "ID_Unico": null, "LONGITUD X": -73.796481049050399, "LONGITUD Y": 5.043947380057487 }, "geometry": { "type": "MultiPoint", "coordinates": [ [ -73.796481049050399, 5.043947380057487 ] ] } },
{ "type": "Feature", "properties": { "fid": 120, "id": null, "FOTOS": "DCIM/JPEG_20260219160432303.jpg", "NOMBRE": "Manantial de fe", "fid_2": 39, "objectd": 39.0, "codigo": "257360100000000180023000000000", "shp_Lng": 57.557100022999997, "shap_Ar": 153.725476128, "NOMBRE_2": "SANCHEZ PIEDRA PATRICIA", "ID_Unico": null, "LONGITUD X": -73.796932556467041, "LONGITUD Y": 5.0430282213790667 }, "geometry": { "type": "MultiPoint", "coordinates": [ [ -73.796932556467041, 5.043028221379067 ] ] } },
{ "type": "Feature", "properties": { "fid": 130, "id": null, "FOTOS": "DCIM/JPEG_20260219161554331.jpg", "NOMBRE": "Almeidas comunicaciones ", "fid_2": 38, "objectd": 38.0, "codigo": "257360100000000180008000000000", "shp_Lng": 98.965443744400005, "shap_Ar": 497.40091148200003, "NOMBRE_2": "YEISON ALDEMAR VEGA PRIETO", "ID_Unico": null, "LONGITUD X": -73.797382872483425, "LONGITUD Y": 5.0432104919032827 }, "geometry": { "type": "MultiPoint", "coordinates": [ [ -73.797382872483425, 5.043210491903283 ] ] } },
{ "type": "Feature", "properties": { "fid": 160, "id": null, "FOTOS": "DCIM/JPEG_20260219164821395.jpg", "NOMBRE": "Clanovix ", "fid_2": 765, "objectd": 711.0, "codigo": "257360100000000140010000000000", "shp_Lng": 44.947312903899999, "shap_Ar": 126.37404465199999, "NOMBRE_2": "EDWIN FRANCISCO LATORRE VEGA", "ID_Unico": null, "LONGITUD X": -73.797569007552738, "LONGITUD Y": 5.0456788663915715 }, "geometry": { "type": "MultiPoint", "coordinates": [ [ -73.797569007552738, 5.045678866391571 ] ] } },
{ "type": "Feature", "properties": { "fid": 178, "id": null, "FOTOS": "DCIM/JPEG_20260219165828415.jpg", "NOMBRE": "Paga Todo", "fid_2": 54, "objectd": 54.0, "codigo": "257360100000000130017000000000", "shp_Lng": 65.986742182900002, "shap_Ar": 206.36269450099999, "NOMBRE_2": "JOSE SAUL QUINTERO BALLEN", "ID_Unico": null, "LONGITUD X": -73.797052308413228, "LONGITUD Y": 5.0454386005019067 }, "geometry": { "type": "MultiPoint", "coordinates": [ [ -73.797052308413228, 5.045438600501907 ] ] } },
{ "type": "Feature", "properties": { "fid": 219, "id": null, "FOTOS": "DCIM/JPEG_20260219172752173.jpg", "NOMBRE": "The bikers solutions", "fid_2": 356, "objectd": 320.0, "codigo": "257360100000000220003000000000", "shp_Lng": 214.97828989000001, "shap_Ar": 1947.52625352, "NOMBRE_2": "ANA DOLORES FETIVA DE CORTES", "ID_Unico": null, "LONGITUD X": -73.795904899891354, "LONGITUD Y": 5.0461383255807011 }, "geometry": { "type": "MultiPoint", "coordinates": [ [ -73.795904899891354, 5.046138325580701 ] ] } },
{ "type": "Feature", "properties": { "fid": 225, "id": null, "FOTOS": "DCIM/JPEG_20260219173235927.jpg", "NOMBRE": "Salón de belleza andrea ", "fid_2": 988, "objectd": 988.0, "codigo": "257360100000000210058000000000", "shp_Lng": 68.600930999200003, "shap_Ar": 215.10316053299999, "NOMBRE_2": "GILMA INES ORJUELA MALDONADO", "ID_Unico": null, "LONGITUD X": -73.795691633479109, "LONGITUD Y": 5.0455167121508993 }, "geometry": { "type": "MultiPoint", "coordinates": [ [ -73.795691633479109, 5.045516712150899 ] ] } },
{ "type": "Feature", "properties": { "fid": 255, "id": null, "FOTOS": "DCIM/JPEG_20260219191724897.jpg", "NOMBRE": "Hotel las tres viejas ", "fid_2": 7, "objectd": 7.0, "codigo": "257360100000000050001000000000", "shp_Lng": 130.83905731499999, "shap_Ar": 737.36357945500004, "NOMBRE_2": "MARIA ANTONIA CASTRO RODRIGUEZ", "ID_Unico": null, "LONGITUD X": -73.798488938117117, "LONGITUD Y": 5.0462815584836394 }, "geometry": { "type": "MultiPoint", "coordinates": [ [ -73.798488938117117, 5.046281558483639 ] ] } },
{ "type": "Feature", "properties": { "fid": 262, "id": null, "FOTOS": "DCIM/JPEG_20260219192127372.jpg", "NOMBRE": "Fruver labranza", "fid_2": 35, "objectd": 35.0, "codigo": "257360100000000040001000000000", "shp_Lng": 132.37261892000001, "shap_Ar": 978.04096834400002, "NOMBRE_2": "SABAS CASAS", "ID_Unico": null, "LONGITUD X": -73.798089153493606, "LONGITUD Y": 5.0465025522816012 }, "geometry": { "type": "MultiPoint", "coordinates": [ [ -73.798089153493606, 5.046502552281601 ] ] } },
{ "type": "Feature", "properties": { "fid": 263, "id": null, "FOTOS": "DCIM/JPEG_20260219192200246.jpg", "NOMBRE": "D1", "fid_2": 35, "objectd": 35.0, "codigo": "257360100000000040001000000000", "shp_Lng": 132.37261892000001, "shap_Ar": 978.04096834400002, "NOMBRE_2": "SABAS CASAS", "ID_Unico": null, "LONGITUD X": -73.798066423869741, "LONGITUD Y": 5.0465531599222651 }, "geometry": { "type": "MultiPoint", "coordinates": [ [ -73.798066423869741, 5.046553159922265 ] ] } }
]
}
