{
"type": "FeatureCollection",
"name": "imagenes_limpias",
"crs": { "type": "name", "properties": { "name": "urn:ogc:def:crs:OGC:1.3:CRS84" } },
"features": [
{ "type": "Feature", "properties": { "nombre_imagen": "-fB6QhrIU0sSUqLZXqoHlg_der.jpg", "texto": "Gooulo Google Gccgle" }, "geometry": { "type": "Point", "coordinates": [ -73.800933333333333, 5.056372222222222 ] } },
{ "type": "Feature", "properties": { "nombre_imagen": "-J7TM2qI9IYDV8Wq0KBZlA_der.jpg", "texto": "Riko Frito Google Gccgle" }, "geometry": { "type": "Point", "coordinates": [ -73.797805555555556, 5.0454 ] } },
{ "type": "Feature", "properties": { "nombre_imagen": "26FQ0jz5byPiNt-MAOAIZw_izq.jpg", "texto": "Sport King Cef Google Gccgle" }, "geometry": { "type": "Point", "coordinates": [ -73.796938888888889, 5.044636111111111 ] } },
{ "type": "Feature", "properties": { "nombre_imagen": "2YVUsZ5m2o_IYeSWV9ndnQ_izq.jpg", "texto": "Zona Urbana Sesquile Google Gccgle" }, "geometry": { "type": "Point", "coordinates": [ -73.794586111111116, 5.054805555555555 ] } },
{ "type": "Feature", "properties": { "nombre_imagen": "3zsRXPJ7YKec2zw485--LA_der.jpg", "texto": "Onsultorio Medio Google Gccgle" }, "geometry": { "type": "Point", "coordinates": [ -73.79720833333333, 5.044766666666667 ] } },
{ "type": "Feature", "properties": { "nombre_imagen": "4UdaskDPW10YZvNKlcmuLg_der.jpg", "texto": "Are Gccgle" }, "geometry": { "type": "Point", "coordinates": [ -73.79545, 5.043058333333334 ] } },
{ "type": "Feature", "properties": { "nombre_imagen": "4z4rGjuxtZjc58GW5QH3fQ_der.jpg", "texto": "Imianza Google Gccgle" }, "geometry": { "type": "Point", "coordinates": [ -73.79754166666666, 5.056463888888889 ] } },
{ "type": "Feature", "properties": { "nombre_imagen": "5PU_IFIJABWh7IRX6uodIQ_izq.jpg", "texto": "Dego Google Gccgle" }, "geometry": { "type": "Point", "coordinates": [ -73.797405555555557, 5.047569444444444 ] } },
{ "type": "Feature", "properties": { "nombre_imagen": "7ewcJPbH9YtSq_0mmkidYQ_der.jpg", "texto": "Covaponca Google Gccgle" }, "geometry": { "type": "Point", "coordinates": [ -73.798397222222221, 5.043744444444444 ] } },
{ "type": "Feature", "properties": { "nombre_imagen": "9cRiHuyglxLyrrhb0v2O4g_izq.jpg", "texto": "Cker Ecerdo Google Gccgle Paoker" }, "geometry": { "type": "Point", "coordinates": [ -73.806175, 5.054969444444445 ] } },
{ "type": "Feature", "properties": { "nombre_imagen": "9J-5w7qNeWuz6odZVt1q-Q_der.jpg", "texto": "Jmv Google Gccgle" }, "geometry": { "type": "Point", "coordinates": [ -73.792572222222219, 5.043605555555556 ] } },
{ "type": "Feature", "properties": { "nombre_imagen": "9MHqVhhkdRXwF77z5C91DA_der.jpg", "texto": "R Google Gccgle" }, "geometry": { "type": "Point", "coordinates": [ -73.796927777777782, 5.055861111111111 ] } },
{ "type": "Feature", "properties": { "nombre_imagen": "9pLz39Y1Hs8hJ1zs6Dvb-w_izq.jpg", "texto": "Jabiulov Google Gccgle" }, "geometry": { "type": "Point", "coordinates": [ -73.795336111111112, 5.045419444444445 ] } },
{ "type": "Feature", "properties": { "nombre_imagen": "9s7A9zTSyxCDRIl2Wa0-Xw_der.jpg", "texto": "Andina Bar Don Berna Refrfrescar Lo Que Somos Google Gccgle" }, "geometry": { "type": "Point", "coordinates": [ -73.797025, 5.044122222222222 ] } },
{ "type": "Feature", "properties": { "nombre_imagen": "aEfk1XNOEqIUoDXGXdecuw_izq.jpg", "texto": "Llakeas Google Gccgle" }, "geometry": { "type": "Point", "coordinates": [ -73.810341666666659, 5.053186111111111 ] } },
{ "type": "Feature", "properties": { "nombre_imagen": "AHMiEsTyoPTYsM2AfS2aAA_izq.jpg", "texto": "Pob Google Gccgle" }, "geometry": { "type": "Point", "coordinates": [ -73.796025, 5.045827777777777 ] } },
{ "type": "Feature", "properties": { "nombre_imagen": "b0P8irXHIsr2LgLQLY_oRA_izq.jpg", "texto": "Icel Jetas Prepago Biemenidos Recargas Todo Google Gccgle" }, "geometry": { "type": "Point", "coordinates": [ -73.797027777777771, 5.044677777777777 ] } },
{ "type": "Feature", "properties": { "nombre_imagen": "Bu-HRxtaG-FVof1B2Yys2w_der.jpg", "texto": "Sesquile Google Gccgle" }, "geometry": { "type": "Point", "coordinates": [ -73.796283333333335, 5.055516666666667 ] } },
{ "type": "Feature", "properties": { "nombre_imagen": "C6PPNAL_Qbh_vt8dlj5rhg_der.jpg", "texto": "Ses Google Gcogle" }, "geometry": { "type": "Point", "coordinates": [ -73.793438888888886, 5.056213888888888 ] } },
{ "type": "Feature", "properties": { "nombre_imagen": "cbm2TXSi_hTPlAzyH8JgRA_izq.jpg", "texto": "Cafeteria Olosinas Colaciones Iasato Mantecada Google Gccgle Goonle" }, "geometry": { "type": "Point", "coordinates": [ -73.796847222222226, 5.044594444444444 ] } },
{ "type": "Feature", "properties": { "nombre_imagen": "CKD8Q-cdggLzHwEfKOuy7Q_der.jpg", "texto": "Cabrones Doge Ait Hyrvk Pvta Google Gccgle" }, "geometry": { "type": "Point", "coordinates": [ -73.799116666666663, 5.046091666666666 ] } },
{ "type": "Feature", "properties": { "nombre_imagen": "dAqE2K040Ft7P7HHEH3cNw_izq.jpg", "texto": "Poker Google Gccgle" }, "geometry": { "type": "Point", "coordinates": [ -73.806275, 5.054944444444445 ] } },
{ "type": "Feature", "properties": { "nombre_imagen": "dqxpmg3wRoWXcR_tyC2UyQ_izq.jpg", "texto": "Rooster Jca Googlé Gocgle" }, "geometry": { "type": "Point", "coordinates": [ -73.796802777777771, 5.047122222222222 ] } },
{ "type": "Feature", "properties": { "nombre_imagen": "dYg1QQIKeziF_IevXjNJ9w_der.jpg", "texto": "Perfumer Google Gccgle" }, "geometry": { "type": "Point", "coordinates": [ -73.797066666666666, 5.044038888888889 ] } },
{ "type": "Feature", "properties": { "nombre_imagen": "dYg1QQIKeziF_IevXjNJ9w_izq.jpg", "texto": "Deposito De Papa Google Gccgle" }, "geometry": { "type": "Point", "coordinates": [ -73.797066666666666, 5.044038888888889 ] } },
{ "type": "Feature", "properties": { "nombre_imagen": "EGS5JKjl_XxJLagS4l3Q2A_der.jpg", "texto": "Baruch Moda Estlo Google Gccgle" }, "geometry": { "type": "Point", "coordinates": [ -73.79698611111111, 5.044205555555555 ] } },
{ "type": "Feature", "properties": { "nombre_imagen": "EN7r0LJuaGpZWiIDQbGWfw_der.jpg", "texto": "Ca Rg A Google Gccgle" }, "geometry": { "type": "Point", "coordinates": [ -73.798075, 5.046391666666667 ] } },
{ "type": "Feature", "properties": { "nombre_imagen": "ERUbK_CZWvPRpcw17bO9Jw_der.jpg", "texto": "Oxuaastra Qseñora Dee Gfatima Google Gocgle" }, "geometry": { "type": "Point", "coordinates": [ -73.796702777777782, 5.048180555555556 ] } },
{ "type": "Feature", "properties": { "nombre_imagen": "EzGwvyFwQ7zw6yXYAFzAEQ_izq.jpg", "texto": "Hospital Sanantonio Google Gccgle" }, "geometry": { "type": "Point", "coordinates": [ -73.799044444444448, 5.045713888888889 ] } },
{ "type": "Feature", "properties": { "nombre_imagen": "FsfmLOkU5SerAxLnIBVxjQ_izq.jpg", "texto": "Pokea El Palalio Del Cerdo Poke Poke Lercerdo Google Gccgle" }, "geometry": { "type": "Point", "coordinates": [ -73.806480555555552, 5.054894444444444 ] } },
{ "type": "Feature", "properties": { "nombre_imagen": "FUA-wcXC2ePR3kDy0diqsw_der.jpg", "texto": "Zona Google Gocgle" }, "geometry": { "type": "Point", "coordinates": [ -73.79869166666667, 5.048436111111111 ] } },
{ "type": "Feature", "properties": { "nombre_imagen": "FUQaixQ8y3bENlCCOThelA_izq.jpg", "texto": "Ival Google Gccgle" }, "geometry": { "type": "Point", "coordinates": [ -73.796702777777782, 5.044752777777778 ] } },
{ "type": "Feature", "properties": { "nombre_imagen": "fZ3OiCCgr1NpMhpEOrIesg_izq.jpg", "texto": "El Palacio Del Cerdo Poke Poker Google Gccgle" }, "geometry": { "type": "Point", "coordinates": [ -73.806363888888882, 5.054922222222222 ] } },
{ "type": "Feature", "properties": { "nombre_imagen": "fZBnBu2W0IANhxyiaf3JQw_der.jpg", "texto": "Restaurante Progreso Google Gccgle" }, "geometry": { "type": "Point", "coordinates": [ -73.797566666666668, 5.043030555555555 ] } },
{ "type": "Feature", "properties": { "nombre_imagen": "GA1XPu40wB6MfGHm7WOcKg_der.jpg", "texto": "Pa Google Gccgle" }, "geometry": { "type": "Point", "coordinates": [ -73.797858333333338, 5.045983333333333 ] } },
{ "type": "Feature", "properties": { "nombre_imagen": "glcXmiDfiiocwTCqSQEVGw_der.jpg", "texto": "Covad Ixae Google Gccgle" }, "geometry": { "type": "Point", "coordinates": [ -73.79568611111111, 5.042777777777777 ] } },
{ "type": "Feature", "properties": { "nombre_imagen": "H_eVe641YgE4ca6DWxXPFQ_der.jpg", "texto": "Bsoscuo Google Gccgle Localer Celular Recargzs" }, "geometry": { "type": "Point", "coordinates": [ -73.796338888888883, 5.044130555555555 ] } },
{ "type": "Feature", "properties": { "nombre_imagen": "IBKrHlSFL_jK-KUcXwljZA_izq.jpg", "texto": "Prohibido Oog Gccgle" }, "geometry": { "type": "Point", "coordinates": [ -73.799386111111104, 5.046911111111111 ] } },
{ "type": "Feature", "properties": { "nombre_imagen": "iHQEd5X0qipzKlq-Tl1dhQ_der.jpg", "texto": "Comipany Google Gccgle" }, "geometry": { "type": "Point", "coordinates": [ -73.797755555555554, 5.045911111111111 ] } },
{ "type": "Feature", "properties": { "nombre_imagen": "iHQEd5X0qipzKlq-Tl1dhQ_izq.jpg", "texto": "Esquilk Google Gccgle" }, "geometry": { "type": "Point", "coordinates": [ -73.797755555555554, 5.045911111111111 ] } },
{ "type": "Feature", "properties": { "nombre_imagen": "J8PYZOzkOqeszBHof7B1_w_der.jpg", "texto": "Ybajaj Google Gccgle" }, "geometry": { "type": "Point", "coordinates": [ -73.79565, 5.055388888888888 ] } },
{ "type": "Feature", "properties": { "nombre_imagen": "k-pXDoS4knLlUy7Iot7mNw_der.jpg", "texto": "Na Google Gccgle" }, "geometry": { "type": "Point", "coordinates": [ -73.798025, 5.046472222222222 ] } },
{ "type": "Feature", "properties": { "nombre_imagen": "KDfAps1T8TpaTvBTdKtRiQ_der.jpg", "texto": "Uexestta De Google Gccgle" }, "geometry": { "type": "Point", "coordinates": [ -73.796661111111106, 5.048258333333333 ] } },
{ "type": "Feature", "properties": { "nombre_imagen": "kdVYUePfEKbWg8B3QmYD8Q_der.jpg", "texto": "Tercea Aguil Google Gccgle" }, "geometry": { "type": "Point", "coordinates": [ -73.798544444444445, 5.048697222222222 ] } },
{ "type": "Feature", "properties": { "nombre_imagen": "kQoxZPXRzbYUrppDTG_fTQ_der.jpg", "texto": "Upermercadoplazaexepress Google Gccgle" }, "geometry": { "type": "Point", "coordinates": [ -73.797272222222219, 5.043616666666667 ] } },
{ "type": "Feature", "properties": { "nombre_imagen": "kQoxZPXRzbYUrppDTG_fTQ_izq.jpg", "texto": "Surtipollo La Avenida Google Gccgle" }, "geometry": { "type": "Point", "coordinates": [ -73.797272222222219, 5.043616666666667 ] } },
{ "type": "Feature", "properties": { "nombre_imagen": "L8cwFb5iyp4-dYTyBZDgQQ_der.jpg", "texto": "Google Gccgle Retoi" }, "geometry": { "type": "Point", "coordinates": [ -73.809725, 5.053675 ] } },
{ "type": "Feature", "properties": { "nombre_imagen": "mAM2FtYmyP2Gc5fiYp4G_A_der.jpg", "texto": "Sesquile Google Gccgle" }, "geometry": { "type": "Point", "coordinates": [ -73.79355, 5.056202777777777 ] } },
{ "type": "Feature", "properties": { "nombre_imagen": "MbYe1Svos6QIpPwWDc54rg_izq.jpg", "texto": "O Ni Google Gccgle" }, "geometry": { "type": "Point", "coordinates": [ -73.794180555555556, 5.054597222222222 ] } },
{ "type": "Feature", "properties": { "nombre_imagen": "mijSvfclCOyucF-SVKO0Mg_der.jpg", "texto": "Frida Google Gccgle" }, "geometry": { "type": "Point", "coordinates": [ -73.796383333333338, 5.044058333333333 ] } },
{ "type": "Feature", "properties": { "nombre_imagen": "mPnZfAUvshL91zUTSBTX1A_izq.jpg", "texto": "Shagricola Syngenta Google Gccgle" }, "geometry": { "type": "Point", "coordinates": [ -73.798255555555556, 5.046113888888889 ] } },
{ "type": "Feature", "properties": { "nombre_imagen": "MrHXvT7WK1yUNiv8C-2Tyw_izq.jpg", "texto": "Alat Google Gcogle" }, "geometry": { "type": "Point", "coordinates": [ -73.79750277777778, 5.047636111111111 ] } },
{ "type": "Feature", "properties": { "nombre_imagen": "mwdN3nCAqWgfrqXCTctgcQ_der.jpg", "texto": "Almeidas Google Gccgle" }, "geometry": { "type": "Point", "coordinates": [ -73.797444444444437, 5.043280555555556 ] } },
{ "type": "Feature", "properties": { "nombre_imagen": "NeqXi_YokyXQwOjYvZIu7Q_der.jpg", "texto": "Ferrepuestos Google Gocgle" }, "geometry": { "type": "Point", "coordinates": [ -73.797558333333328, 5.04385 ] } },
{ "type": "Feature", "properties": { "nombre_imagen": "NrDh8ZXHCkv9mLuU1qUSAQ_der.jpg", "texto": "Nja Google Gccgle" }, "geometry": { "type": "Point", "coordinates": [ -73.796488888888888, 5.046902777777778 ] } },
{ "type": "Feature", "properties": { "nombre_imagen": "NrDh8ZXHCkv9mLuU1qUSAQ_izq.jpg", "texto": "Love You Google Gccgle" }, "geometry": { "type": "Point", "coordinates": [ -73.796488888888888, 5.046902777777778 ] } },
{ "type": "Feature", "properties": { "nombre_imagen": "PtuwssGpDr-cBVXAW2NkqA_der.jpg", "texto": "Bar Casonaf Google Gccgle" }, "geometry": { "type": "Point", "coordinates": [ -73.796944444444449, 5.044286111111111 ] } },
{ "type": "Feature", "properties": { "nombre_imagen": "qgS5Ii15CSkGRcgjEWqeFQ_izq.jpg", "texto": "Sbsqule Google Gcogle" }, "geometry": { "type": "Point", "coordinates": [ -73.799052777777774, 5.048638888888889 ] } },
{ "type": "Feature", "properties": { "nombre_imagen": "rl5oyOtxucWkZlxsPVx8gg_izq.jpg", "texto": "Smcel De Google Gccgle" }, "geometry": { "type": "Point", "coordinates": [ -73.796480555555547, 5.044416666666667 ] } },
{ "type": "Feature", "properties": { "nombre_imagen": "RxsbPyYs7hzhgINLFhLHCg_der.jpg", "texto": "Casalote Google Gccgle" }, "geometry": { "type": "Point", "coordinates": [ -73.795016666666669, 5.043672222222222 ] } },
{ "type": "Feature", "properties": { "nombre_imagen": "s3wJkH8eJ7At5AjviYmV_Q_izq.jpg", "texto": "Caloa Google Gccgle" }, "geometry": { "type": "Point", "coordinates": [ -73.797469444444445, 5.0449 ] } },
{ "type": "Feature", "properties": { "nombre_imagen": "sBKWUXE4Tjh7vE7fGXqGIQ_izq.jpg", "texto": "El Pal Poker Google Gccgle" }, "geometry": { "type": "Point", "coordinates": [ -73.806566666666669, 5.054872222222222 ] } },
{ "type": "Feature", "properties": { "nombre_imagen": "sxSgPxZDZdhIleCMZE0FxQ_izq.jpg", "texto": "Colomola Vida Perimetral De Sopó Salitre Salitre Patios La Calera Km Cstimada Fin Dc Concesion Fecha Oriente De Cundinamarca Guasca Guasca Etapa Constuccion Obras Ufi Google Gccgle" }, "geometry": { "type": "Point", "coordinates": [ -73.7941, 5.054558333333333 ] } },
{ "type": "Feature", "properties": { "nombre_imagen": "T46XgBdpoH6FqYI1mwRs4Q_izq.jpg", "texto": "Restaurante Comidas Rápidas El Rincón Dorado Google Gccgle" }, "geometry": { "type": "Point", "coordinates": [ -73.797366666666662, 5.043755555555555 ] } },
{ "type": "Feature", "properties": { "nombre_imagen": "TfvwpibTf9fQJ3hwDUlxig_der.jpg", "texto": "Sca Google Gocgle" }, "geometry": { "type": "Point", "coordinates": [ -73.796369444444437, 5.043158333333333 ] } },
{ "type": "Feature", "properties": { "nombre_imagen": "TJ8gBZCB2cdddyXYdox9fw_der.jpg", "texto": "Ita Google Gccgle" }, "geometry": { "type": "Point", "coordinates": [ -73.798772222222226, 5.045558333333333 ] } },
{ "type": "Feature", "properties": { "nombre_imagen": "TZPqXUKwAIdu8rpFRD0paQ_izq.jpg", "texto": "Viorids Yesp Juan Diego Vidrieria Vision Google Gccgle" }, "geometry": { "type": "Point", "coordinates": [ -73.797438888888891, 5.047430555555556 ] } },
{ "type": "Feature", "properties": { "nombre_imagen": "U5t1rHS7SzGSkT1z3RBzYQ_izq.jpg", "texto": "Vidrtos Vision Espe Whos Google Gccgle Pedar" }, "geometry": { "type": "Point", "coordinates": [ -73.79761666666667, 5.047147222222222 ] } },
{ "type": "Feature", "properties": { "nombre_imagen": "UQmIgZcyrKh5Yaa5UkMRnQ_der.jpg", "texto": "Ultra Google" }, "geometry": { "type": "Point", "coordinates": [ -73.797605555555549, 5.042947222222222 ] } },
{ "type": "Feature", "properties": { "nombre_imagen": "UQmIgZcyrKh5Yaa5UkMRnQ_izq.jpg", "texto": "Fe Google Gocgle" }, "geometry": { "type": "Point", "coordinates": [ -73.797605555555549, 5.042947222222222 ] } },
{ "type": "Feature", "properties": { "nombre_imagen": "VdR-nYxq741CMOFhcNmomQ_der.jpg", "texto": "Nutri Google Gccgle" }, "geometry": { "type": "Point", "coordinates": [ -73.798219444444442, 5.046175 ] } },
{ "type": "Feature", "properties": { "nombre_imagen": "vkP4cK1ucWLe9eD_Fukkdg_der.jpg", "texto": "Villapanal Google Gccgle" }, "geometry": { "type": "Point", "coordinates": [ -73.795136111111105, 5.043413888888889 ] } },
{ "type": "Feature", "properties": { "nombre_imagen": "weu7TQ1Uy2g1hxGEznlTww_der.jpg", "texto": "Liver Bancolombia Uve Nternet Recargas Google Gccgle" }, "geometry": { "type": "Point", "coordinates": [ -73.797186111111102, 5.043788888888889 ] } },
{ "type": "Feature", "properties": { "nombre_imagen": "WtfBFMboOM0XWz46eafOrw_izq.jpg", "texto": "Vnde Cel Google Gocgle" }, "geometry": { "type": "Point", "coordinates": [ -73.796391666666665, 5.048733333333333 ] } },
{ "type": "Feature", "properties": { "nombre_imagen": "XAEE5e_02JWWg1X5nHLeRQ_izq.jpg", "texto": "Ospital Google Gccgle" }, "geometry": { "type": "Point", "coordinates": [ -73.798036111111102, 5.047922222222222 ] } },
{ "type": "Feature", "properties": { "nombre_imagen": "XdvPEPCwZf8ptQOovgVUrw_der.jpg", "texto": "Cafeteria Google Gccgle" }, "geometry": { "type": "Point", "coordinates": [ -73.797941666666659, 5.046038888888889 ] } },
{ "type": "Feature", "properties": { "nombre_imagen": "xHZCjNt_qP0Fuwvyiwh91g_der.jpg", "texto": "Cofp Google Gccgle" }, "geometry": { "type": "Point", "coordinates": [ -73.796280555555555, 5.04565 ] } },
{ "type": "Feature", "properties": { "nombre_imagen": "xHZCjNt_qP0Fuwvyiwh91g_izq.jpg", "texto": "Municifal Varones Google Gccgle" }, "geometry": { "type": "Point", "coordinates": [ -73.796280555555555, 5.04565 ] } },
{ "type": "Feature", "properties": { "nombre_imagen": "xk6mtjK6WMQksmNwpAiK5Q_izq.jpg", "texto": "Pepsi Google Gccgle" }, "geometry": { "type": "Point", "coordinates": [ -73.799297222222222, 5.04575 ] } },
{ "type": "Feature", "properties": { "nombre_imagen": "yqV2N5H1YsgkHgb8bw8wRg_der.jpg", "texto": "Prohibidq Google Gcogle" }, "geometry": { "type": "Point", "coordinates": [ -73.798111111111112, 5.048044444444444 ] } },
{ "type": "Feature", "properties": { "nombre_imagen": "zqr5l2zsNotgcRwjjFlstA_der.jpg", "texto": "Sol Google Gocgle Jaguila Light" }, "geometry": { "type": "Point", "coordinates": [ -73.797969444444448, 5.043083333333334 ] } },
{ "type": "Feature", "properties": { "nombre_imagen": "zV_aEeFdNFWPkRqOmwD_Ow_der.jpg", "texto": "Pepelerig Sawbio Solsalud Google Gocgle" }, "geometry": { "type": "Point", "coordinates": [ -73.797377777777783, 5.044847222222222 ] } }
]
}
