{
"type": "FeatureCollection",
"name": "LIMITE_URBANO_SESQUILE",
"crs": { "type": "name", "properties": { "name": "urn:ogc:def:crs:OGC:1.3:CRS84" } },
"features": [
{ "type": "Feature", "properties": { "COD_DPTO": "25", "COD_MPIO": "25736", "COD_CLAS": "1", "COD_SETR": "000", "COD_SECR": "00", "COD_CPOB": "25736000", "NOM_CPOB": "SESQUILÉ", "COD_DANE": "25736100000000", "CPOB_AREA": 0.7467844, "ALTITUD": 2623.0, "SHAPE_AREA": 6.089905e-05, "SHAPE_LEN": 0.04444897813, "ORIG_FID": 4091 }, "geometry": { "type": "MultiPolygon", "coordinates": [ [ [ [ -73.797366698000019, 5.04908844383435 ], [ -73.797311956999977, 5.049059908834339 ], [ -73.797150894000026, 5.049279539834325 ], [ -73.796683925000025, 5.049014824834324 ], [ -73.796624437999981, 5.048889903834366 ], [ -73.796487619, 5.048690623834378 ], [ -73.79651306, 5.048643472834383 ], [ -73.796455578, 5.04865023183436 ], [ -73.796425994, 5.048707786834367 ], [ -73.796291989999986, 5.048968484834339 ], [ -73.796227480000027, 5.048933504834333 ], [ -73.796157489, 5.048876280834339 ], [ -73.796104389, 5.04883286683434 ], [ -73.795927200999984, 5.048687999834382 ], [ -73.795727195999973, 5.048524477834355 ], [ -73.795682629, 5.04856633083438 ], [ -73.795415494, 5.048328010834392 ], [ -73.795277753, 5.048168230834353 ], [ -73.795192418999989, 5.048069243834354 ], [ -73.794984193, 5.047796517834375 ], [ -73.794966965000015, 5.04776883683437 ], [ -73.794945550000023, 5.047754559834376 ], [ -73.794880279999973, 5.047738954834393 ], [ -73.794837261, 5.047783064834367 ], [ -73.794789415000025, 5.047832123834412 ], [ -73.793978708, 5.04701490483444 ], [ -73.794013243, 5.046980368834392 ], [ -73.794047407999983, 5.046947480834432 ], [ -73.794046775000027, 5.046946836834421 ], [ -73.794039213000019, 5.046939118834418 ], [ -73.794033950000028, 5.046933748834425 ], [ -73.793878791999987, 5.046775422834404 ], [ -73.793845087000022, 5.046731875834446 ], [ -73.793840736999982, 5.046733601834443 ], [ -73.793838629, 5.046734437834413 ], [ -73.793781309, 5.046757176834437 ], [ -73.79370744900001, 5.046786476834429 ], [ -73.79364138, 5.046812686834418 ], [ -73.793599613000026, 5.046829255834441 ], [ -73.793545345999974, 5.046850783834435 ], [ -73.793396198999972, 5.046909950834389 ], [ -73.793375299, 5.046918240834429 ], [ -73.793284723, 5.046954172834426 ], [ -73.793093913, 5.046977411834398 ], [ -73.792710225, 5.04702500083442 ], [ -73.792502022, 5.047060692834408 ], [ -73.792350331000023, 5.04710530783444 ], [ -73.791910131, 5.046635363834419 ], [ -73.791910131, 5.046623466834442 ], [ -73.791933926000013, 5.046602646834417 ], [ -73.792142129000013, 5.046528287834422 ], [ -73.792332484999974, 5.046403366834415 ], [ -73.792439205999983, 5.046320858834425 ], [ -73.792486704, 5.046272817834409 ], [ -73.792563195000014, 5.046195452834434 ], [ -73.792689048999989, 5.04606815983445 ], [ -73.792946030999985, 5.045873995834462 ], [ -73.793264403000023, 5.045597026834444 ], [ -73.793258075999972, 5.045530219834448 ], [ -73.793137596, 5.045391295834457 ], [ -73.793128508999985, 5.04538129983444 ], [ -73.792847121000023, 5.045071748834459 ], [ -73.792672741999979, 5.044879915834499 ], [ -73.792756886, 5.04478020383449 ], [ -73.792826467, 5.044667253834479 ], [ -73.792855454, 5.044620198834493 ], [ -73.792856669, 5.044618225834502 ], [ -73.792858533000015, 5.044585172834466 ], [ -73.792857073999983, 5.044510893834476 ], [ -73.792847026, 5.044434429834521 ], [ -73.79280703400002, 5.044310946834485 ], [ -73.792644175000021, 5.044163814834493 ], [ -73.792545365000024, 5.044107648834514 ], [ -73.792361614000015, 5.044003200834523 ], [ -73.792177206000019, 5.043854484834515 ], [ -73.792123496999977, 5.043811833834511 ], [ -73.791989823, 5.043765254834502 ], [ -73.791928751, 5.043765254834502 ], [ -73.791878187, 5.04366412783451 ], [ -73.791704288, 5.043470796834523 ], [ -73.791675422000026, 5.043439386834503 ], [ -73.791646867999987, 5.043417971834513 ], [ -73.79153265399998, 5.043153851834529 ], [ -73.791432717000021, 5.043082467834567 ], [ -73.791054382000027, 5.042825485834577 ], [ -73.790965153, 5.042714840834572 ], [ -73.790840231, 5.042586350834571 ], [ -73.790683186000024, 5.042404321834542 ], [ -73.790611803, 5.042257984834558 ], [ -73.790426205000017, 5.041672637834608 ], [ -73.790320913000016, 5.041463244834584 ], [ -73.790486285999975, 5.041546525834583 ], [ -73.790512348999982, 5.041515964834562 ], [ -73.790630132, 5.041316089834607 ], [ -73.790777911000021, 5.041117643834601 ], [ -73.79125474, 5.040477329834613 ], [ -73.79145104600002, 5.040266747834653 ], [ -73.79164527, 5.040043077834633 ], [ -73.79189511300001, 5.039878895834651 ], [ -73.792134249000014, 5.03977538883465 ], [ -73.79257560100001, 5.03969179983467 ], [ -73.793164771000022, 5.040406890834601 ], [ -73.793929552, 5.041335125834573 ], [ -73.793983089999983, 5.04133155583458 ], [ -73.794075889, 5.041374386834612 ], [ -73.794172257000014, 5.041470754834571 ], [ -73.79428290200002, 5.041531430834599 ], [ -73.794368562999978, 5.041581399834573 ], [ -73.794522038000025, 5.041699182834579 ], [ -73.794572034, 5.041773599834587 ], [ -73.794651449000014, 5.041748612834568 ], [ -73.794679293, 5.041716530834607 ], [ -73.794829302999972, 5.041543696834596 ], [ -73.794948594, 5.041420335834577 ], [ -73.795465944999989, 5.040885329834592 ], [ -73.79550694, 5.040923550834604 ], [ -73.795528199999978, 5.040943371834633 ], [ -73.795565125, 5.040894885834603 ], [ -73.795128154, 5.040423444834616 ], [ -73.795131868999988, 5.040420539834642 ], [ -73.795223933999978, 5.040348545834648 ], [ -73.795267610999986, 5.040314390834612 ], [ -73.795336733999989, 5.040259307834606 ], [ -73.795406227, 5.040342107834632 ], [ -73.795411189, 5.040348019834633 ], [ -73.795430189, 5.040323609834604 ], [ -73.795436757, 5.040299725834632 ], [ -73.79541487900002, 5.040270305834662 ], [ -73.79541190499998, 5.040225690834629 ], [ -73.795809419000022, 5.039835980834654 ], [ -73.79582101, 5.039824617834658 ], [ -73.795835704000012, 5.039810211834665 ], [ -73.795870246, 5.039812472834629 ], [ -73.795870412, 5.039812862834651 ], [ -73.795881811000015, 5.039839564834672 ], [ -73.795882324, 5.039840767834622 ], [ -73.79588451799998, 5.039845906834614 ], [ -73.795903039, 5.039889292834632 ], [ -73.79590362, 5.039890653834616 ], [ -73.795905240000025, 5.039894448834617 ], [ -73.795992125, 5.040097979834622 ], [ -73.796032767999975, 5.04014208983465 ], [ -73.796072298000013, 5.040187799834645 ], [ -73.796379506, 5.039876135834619 ], [ -73.796429113999977, 5.039958801834645 ], [ -73.79655457299998, 5.039865834834647 ], [ -73.796771420000027, 5.040152478834663 ], [ -73.796704221000027, 5.040191414834617 ], [ -73.796607902, 5.040237088834647 ], [ -73.796705754000016, 5.040338046834606 ], [ -73.796865035, 5.040502383834599 ], [ -73.796822648999978, 5.040555789834607 ], [ -73.796686363999981, 5.040733459834627 ], [ -73.796647872999984, 5.040782606834597 ], [ -73.796609621000016, 5.040831447834615 ], [ -73.796590209999977, 5.040856233834602 ], [ -73.796591486000011, 5.040857147834597 ], [ -73.796879806, 5.041064097834595 ], [ -73.797338528000012, 5.041393357834587 ], [ -73.797482487000025, 5.041496688834573 ], [ -73.79759882899998, 5.041571760834591 ], [ -73.797776146, 5.041621110834574 ], [ -73.797576803000027, 5.042057424834571 ], [ -73.797583665, 5.042060604834593 ], [ -73.797827892999976, 5.042173769834546 ], [ -73.797843877, 5.042181179834567 ], [ -73.797860362, 5.042188820834587 ], [ -73.797922933999985, 5.042217812834547 ], [ -73.797976588999973, 5.042240740834573 ], [ -73.798005717000024, 5.04224811783454 ], [ -73.797750639000014, 5.042731623834551 ], [ -73.79777728900001, 5.042779213834558 ], [ -73.798592015999986, 5.043378837834552 ], [ -73.79910978700002, 5.043742418834532 ], [ -73.799154083000019, 5.043723182834515 ], [ -73.799169759, 5.043707341834526 ], [ -73.799184946000025, 5.043691995834531 ], [ -73.799484666000012, 5.043340620834556 ], [ -73.80024355, 5.04387370883454 ], [ -73.800538749999987, 5.04408107583451 ], [ -73.80050484100002, 5.044119214834532 ], [ -73.800407506999989, 5.044191451834513 ], [ -73.800383275, 5.044225061834516 ], [ -73.800348973999974, 5.044272647834502 ], [ -73.800400333000027, 5.044314989834473 ], [ -73.801239059000011, 5.0448065618345 ], [ -73.801298579, 5.044841445834506 ], [ -73.80109037699998, 5.045641539834473 ], [ -73.801065154000014, 5.045804770834457 ], [ -73.800912869, 5.046235452834447 ], [ -73.80080596099998, 5.046203733834458 ], [ -73.800777313000026, 5.046195233834426 ], [ -73.800769394999975, 5.046203733834458 ], [ -73.800760792, 5.04621296883445 ], [ -73.80068294199998, 5.046345593834431 ], [ -73.800602593, 5.046489196834457 ], [ -73.800585463, 5.046519814834441 ], [ -73.800580363999984, 5.046528928834402 ], [ -73.800595597999973, 5.046537354834425 ], [ -73.800635522999983, 5.046559437834405 ], [ -73.801015248999988, 5.046765124834398 ], [ -73.800924259, 5.046927964834421 ], [ -73.800592071999972, 5.047522460834419 ], [ -73.80057401800002, 5.047554771834409 ], [ -73.800545199999988, 5.047605784834372 ], [ -73.800339231, 5.0474803178344 ], [ -73.80018163, 5.047384311834421 ], [ -73.800138125999979, 5.047357808834406 ], [ -73.800083938, 5.047354202834399 ], [ -73.800023262000025, 5.047519575834408 ], [ -73.80002564199998, 5.047878873834378 ], [ -73.800060143999985, 5.047930032834383 ], [ -73.800067281999986, 5.048077558834358 ], [ -73.79999232900002, 5.04843209883439 ], [ -73.799968154999988, 5.048485783834344 ], [ -73.799950401, 5.048516732834349 ], [ -73.799947579, 5.048531477834341 ], [ -73.799947175, 5.048533586834374 ], [ -73.799918233000028, 5.048684810834343 ], [ -73.79984642300002, 5.049217947834318 ], [ -73.799833762, 5.049311943834347 ], [ -73.799820080000018, 5.049413520834353 ], [ -73.799781414, 5.049800182834331 ], [ -73.799744340000018, 5.050058017834336 ], [ -73.799715978999984, 5.05025525483433 ], [ -73.799656492, 5.050380176834325 ], [ -73.799570237000012, 5.05066868683428 ], [ -73.799427469000022, 5.050558635834301 ], [ -73.799068573, 5.050160452834297 ], [ -73.799031126999978, 5.050113512834297 ], [ -73.799003054000025, 5.050079065834329 ], [ -73.798986671000023, 5.050060419834336 ], [ -73.798951659000011, 5.050020571834306 ], [ -73.798930176, 5.0499961218343 ], [ -73.798866149, 5.049921314834326 ], [ -73.798858557000017, 5.049912179834296 ], [ -73.79885821, 5.049911765834302 ], [ -73.798858059, 5.049911576834302 ], [ -73.798846903000026, 5.049898151834341 ], [ -73.798816987, 5.04987979283433 ], [ -73.79880559999998, 5.049872671834306 ], [ -73.798760663999985, 5.049844564834318 ], [ -73.798757865000027, 5.049842811834333 ], [ -73.798752563999983, 5.049839491834313 ], [ -73.798708668000017, 5.049811998834305 ], [ -73.798699721, 5.049806051834326 ], [ -73.798699441999986, 5.049805870834313 ], [ -73.798646615, 5.049778553834319 ], [ -73.798644449, 5.049777430834321 ], [ -73.798593003, 5.049748716834324 ], [ -73.798579397000026, 5.049741119834349 ], [ -73.798537966000026, 5.049718521834299 ], [ -73.798516629, 5.049706890834358 ], [ -73.798483276000013, 5.049688922834345 ], [ -73.798443906999978, 5.049667718834338 ], [ -73.798429793000025, 5.049659952834329 ], [ -73.79837670400002, 5.049630718834322 ], [ -73.798373319, 5.049628855834357 ], [ -73.798319316, 5.049599117834337 ], [ -73.79826273499998, 5.049568705834335 ], [ -73.798255278999989, 5.049564694834345 ], [ -73.798208244000023, 5.049539297834348 ], [ -73.798190832999978, 5.04952989883432 ], [ -73.798152947, 5.049507674834307 ], [ -73.79809838, 5.049478618834343 ], [ -73.798029332999988, 5.049441858834345 ], [ -73.797865091, 5.049353731834326 ], [ -73.797842678999984, 5.049341706834333 ], [ -73.797657852999976, 5.049245332834328 ], [ -73.797484895000025, 5.049152134834329 ], [ -73.797426458000018, 5.049120645834353 ], [ -73.79742068500002, 5.049117534834337 ], [ -73.797366698000019, 5.04908844383435 ] ] ] ] } },
{ "type": "Feature", "properties": { "COD_DPTO": "25", "COD_MPIO": "25736", "COD_CLAS": "2", "COD_SETR": "001", "COD_SECR": "02", "COD_CPOB": "25736002", "NOM_CPOB": "LA PLAYA", "COD_DANE": "25736200102002", "CPOB_AREA": 0.10684007, "ALTITUD": 2571.0, "SHAPE_AREA": 8.71278e-06, "SHAPE_LEN": 0.02454529453, "ORIG_FID": 4092 }, "geometry": { "type": "MultiPolygon", "coordinates": [ [ [ [ -73.796514195999976, 5.056658489834117 ], [ -73.796581403, 5.056514467834094 ], [ -73.796592735, 5.056474610834104 ], [ -73.796350817000018, 5.056424260834126 ], [ -73.796144675999983, 5.056405509834099 ], [ -73.796125792999987, 5.056434799834086 ], [ -73.795971136, 5.056641431834094 ], [ -73.795957719, 5.056666330834074 ], [ -73.795768784000018, 5.05658394283412 ], [ -73.79553480300001, 5.056471049834133 ], [ -73.795516248000013, 5.056307617834118 ], [ -73.795235674000025, 5.056264429834113 ], [ -73.795053398, 5.056232288834091 ], [ -73.794910279000021, 5.056138436834129 ], [ -73.794205909000027, 5.056197465834127 ], [ -73.793268650000016, 5.056292759834129 ], [ -73.793446459999984, 5.055622909834141 ], [ -73.793658629999982, 5.054945417834145 ], [ -73.793624830999988, 5.054907227834147 ], [ -73.793445443999985, 5.054817187834169 ], [ -73.79354424600001, 5.054620052834172 ], [ -73.793567764999977, 5.05457312783419 ], [ -73.793691003999982, 5.054279167834174 ], [ -73.793704769999977, 5.054246331834168 ], [ -73.793821745, 5.05432143783416 ], [ -73.793842160999986, 5.054287054834148 ], [ -73.793859355, 5.054252608834177 ], [ -73.793823643999986, 5.054222073834174 ], [ -73.793774161999977, 5.054181239834172 ], [ -73.793759051, 5.054168769834171 ], [ -73.793740070000013, 5.054147882834166 ], [ -73.793817999, 5.054034491834213 ], [ -73.793835555999976, 5.05404783283421 ], [ -73.793890814, 5.054081571834161 ], [ -73.793943399, 5.054120510834188 ], [ -73.793890840000017, 5.054274570834182 ], [ -73.793905772000016, 5.054295103834184 ], [ -73.793986222, 5.054405726834188 ], [ -73.794165597000017, 5.054524478834174 ], [ -73.794674875999988, 5.054821622834163 ], [ -73.794698728000014, 5.054838380834185 ], [ -73.794721664, 5.05480676283415 ], [ -73.794734156, 5.054781911834175 ], [ -73.794736379000028, 5.05477748983416 ], [ -73.794826399999977, 5.054598393834149 ], [ -73.794879288, 5.054611871834172 ], [ -73.79495387999998, 5.054630880834142 ], [ -73.794977485, 5.054636896834195 ], [ -73.795030090000012, 5.054554419834159 ], [ -73.795169129999977, 5.054625749834186 ], [ -73.79509004, 5.054782415834185 ], [ -73.795414076999975, 5.054894392834138 ], [ -73.795451066999988, 5.054907174834141 ], [ -73.795462945, 5.054911279834152 ], [ -73.795514401, 5.054927878834146 ], [ -73.795847719999983, 5.055035403834171 ], [ -73.79581715, 5.05510429683416 ], [ -73.795590032, 5.05503911983416 ], [ -73.795514837999974, 5.05518648783415 ], [ -73.795502152999973, 5.055211348834129 ], [ -73.795481181000014, 5.055256982834131 ], [ -73.795477569000013, 5.05526484283412 ], [ -73.796077256999979, 5.055609637834151 ], [ -73.796125666000023, 5.05558518483412 ], [ -73.79624479, 5.055525011834108 ], [ -73.796362228000021, 5.055414524834141 ], [ -73.796435267999982, 5.055348520834129 ], [ -73.796493969999972, 5.055334190834125 ], [ -73.79659562, 5.055318443834164 ], [ -73.796651465000025, 5.05528688583412 ], [ -73.796807569, 5.055146267834139 ], [ -73.796945047, 5.055041531834168 ], [ -73.797039543999972, 5.055014296834163 ], [ -73.797091082, 5.055014318834163 ], [ -73.797271454999986, 5.05503018783414 ], [ -73.797400272, 5.055091972834155 ], [ -73.797471821999977, 5.055162346834164 ], [ -73.797536187999981, 5.055290138834171 ], [ -73.79759483700002, 5.055399266834131 ], [ -73.797639581, 5.055709427834133 ], [ -73.797647649, 5.055765357834101 ], [ -73.797647612, 5.055850055834126 ], [ -73.797945404000018, 5.055804245834103 ], [ -73.798831595000024, 5.055724236834121 ], [ -73.79955888, 5.055641285834155 ], [ -73.799556951999989, 5.055503018834151 ], [ -73.799556442999972, 5.055466529834132 ], [ -73.79955602299998, 5.055450853834151 ], [ -73.799555794000014, 5.055442278834117 ], [ -73.799546005000025, 5.05507676483418 ], [ -73.799641071, 5.055068978834152 ], [ -73.79975226800002, 5.055059871834167 ], [ -73.799782032999985, 5.05505865583418 ], [ -73.799787891, 5.055449880834157 ], [ -73.799797967000018, 5.055615548834119 ], [ -73.800782713, 5.05551712883414 ], [ -73.800911523000025, 5.055505828834165 ], [ -73.800949971000023, 5.055503089834138 ], [ -73.800979927000014, 5.055755761834114 ], [ -73.801029890999985, 5.056090268834105 ], [ -73.801016961000016, 5.056197929834108 ], [ -73.800981131000015, 5.056292661834087 ], [ -73.800637452999979, 5.05651646283409 ], [ -73.800276688999986, 5.056520614834117 ], [ -73.800107734999983, 5.05651357383411 ], [ -73.800055789, 5.056511408834104 ], [ -73.799879663000013, 5.056512154834112 ], [ -73.7998164, 5.056455345834117 ], [ -73.79978903, 5.056430767834089 ], [ -73.799747290000028, 5.056397253834097 ], [ -73.799727557999972, 5.056418469834089 ], [ -73.799712715, 5.056616516834106 ], [ -73.79971141599998, 5.056633845834112 ], [ -73.799500646000013, 5.056596016834104 ], [ -73.799475522000023, 5.056594456834121 ], [ -73.799475751999978, 5.056410275834116 ], [ -73.799475782, 5.056385823834121 ], [ -73.799477688000025, 5.0563600528341 ], [ -73.799240285, 5.056352772834122 ], [ -73.798720157999981, 5.056308285834102 ], [ -73.798330067, 5.056263854834104 ], [ -73.797854082000015, 5.05621531983409 ], [ -73.797748963, 5.056166525834143 ], [ -73.797720971, 5.056153532834102 ], [ -73.797666584000012, 5.056121926834106 ], [ -73.797642161, 5.056320023834113 ], [ -73.797541884, 5.056472149834098 ], [ -73.797519417999979, 5.056485473834099 ], [ -73.797362889, 5.056578303834126 ], [ -73.797241197, 5.056592606834134 ], [ -73.797105201000022, 5.056581063834106 ], [ -73.797050899999988, 5.056673877834122 ], [ -73.797037338, 5.056765373834103 ], [ -73.796895262000021, 5.05706768183411 ], [ -73.796816370999977, 5.057099285834068 ], [ -73.796670243999984, 5.057063332834057 ], [ -73.796527105, 5.057015418834069 ], [ -73.796491447, 5.056710346834078 ], [ -73.796514195999976, 5.056658489834117 ] ] ] ] } },
{ "type": "Feature", "properties": { "COD_DPTO": "25", "COD_MPIO": "25736", "COD_CLAS": "2", "COD_SETR": "001", "COD_SECR": "02", "COD_CPOB": "25736003", "NOM_CPOB": "BOITIVA SAN ROQUE", "COD_DANE": "25736200102003", "CPOB_AREA": 0.13692266, "ALTITUD": 2658.0, "SHAPE_AREA": 1.116585e-05, "SHAPE_LEN": 0.01456309145, "ORIG_FID": 4093 }, "geometry": { "type": "MultiPolygon", "coordinates": [ [ [ [ -73.789218861, 5.048453362834389 ], [ -73.789146405999986, 5.048411414834341 ], [ -73.788314664999973, 5.047929881834391 ], [ -73.788288459, 5.047944950834363 ], [ -73.788124308000022, 5.048039336834356 ], [ -73.787951205000013, 5.047937124834359 ], [ -73.787625626000022, 5.048054159834368 ], [ -73.787186862, 5.047626262834375 ], [ -73.786897857999975, 5.047344415834393 ], [ -73.786550294999984, 5.047005460834437 ], [ -73.786818277, 5.046715165834433 ], [ -73.787111094000011, 5.046397966834453 ], [ -73.786935570000026, 5.046212221834445 ], [ -73.787038203, 5.046066041834454 ], [ -73.787094098000011, 5.045986431834454 ], [ -73.787046401, 5.045936644834433 ], [ -73.787122795000016, 5.045837146834439 ], [ -73.787186150000025, 5.045858899834436 ], [ -73.787262305000013, 5.045767040834431 ], [ -73.787565821999976, 5.045400933834451 ], [ -73.788073761000021, 5.044928382834494 ], [ -73.788407958, 5.04455719983448 ], [ -73.788428285, 5.044537246834487 ], [ -73.788456838, 5.044577221834477 ], [ -73.788474387, 5.044551465834472 ], [ -73.788633215, 5.044226290834477 ], [ -73.788642222000021, 5.044207850834512 ], [ -73.788680388999978, 5.0442270088345 ], [ -73.789037631999975, 5.044435405834487 ], [ -73.789312501999973, 5.044595749834476 ], [ -73.789418510000019, 5.044435405834487 ], [ -73.789434266, 5.044411573834476 ], [ -73.789465486999973, 5.044435405834487 ], [ -73.790001931, 5.044844885834503 ], [ -73.790345756000022, 5.045056302834497 ], [ -73.790722292999988, 5.045287834834481 ], [ -73.790638605000026, 5.04539670783446 ], [ -73.790562342999976, 5.045495920834457 ], [ -73.79062434399998, 5.04557251083445 ], [ -73.790581627999984, 5.045691332834437 ], [ -73.790165704, 5.046260374834413 ], [ -73.790137339000012, 5.046299181834418 ], [ -73.790072940000016, 5.046376252834439 ], [ -73.790091376000021, 5.046395658834414 ], [ -73.790485613999977, 5.046686909834428 ], [ -73.790506149, 5.046702079834409 ], [ -73.790543973000013, 5.046665337834441 ], [ -73.790942090999977, 5.0470968618344 ], [ -73.790971453, 5.047136093834407 ], [ -73.790079155, 5.04779282483438 ], [ -73.789258241000027, 5.048478109834385 ], [ -73.789218861, 5.048453362834389 ] ] ] ] } },
{ "type": "Feature", "properties": { "COD_DPTO": "25", "COD_MPIO": "25736", "COD_CLAS": "2", "COD_SETR": "001", "COD_SECR": "01", "COD_CPOB": "25736004", "NOM_CPOB": "SIATOYA", "COD_DANE": "25736200101004", "CPOB_AREA": 0.43204237, "ALTITUD": 2623.0, "SHAPE_AREA": 3.523273e-05, "SHAPE_LEN": 0.02846254026, "ORIG_FID": 4094 }, "geometry": { "type": "MultiPolygon", "coordinates": [ [ [ [ -73.803943955000022, 5.055049640834138 ], [ -73.803965370000014, 5.05500919083416 ], [ -73.80406530800002, 5.054928288834132 ], [ -73.804300873999978, 5.054804556834167 ], [ -73.804467983999984, 5.05471226783417 ], [ -73.804497942000012, 5.054680074834186 ], [ -73.80459373399998, 5.053517347834215 ], [ -73.804641831000026, 5.052933535834227 ], [ -73.804641850999985, 5.052885683834209 ], [ -73.804675323000026, 5.052723000834234 ], [ -73.804660496, 5.052647644834207 ], [ -73.804656266999984, 5.052646428834227 ], [ -73.804656705000014, 5.052641472834225 ], [ -73.804661403000011, 5.052588342834258 ], [ -73.804670650999981, 5.052483737834216 ], [ -73.804698719999976, 5.052213204834231 ], [ -73.804709189999983, 5.052109868834238 ], [ -73.804710613999987, 5.052095816834258 ], [ -73.804742977999979, 5.051776402834278 ], [ -73.804743702, 5.051769254834268 ], [ -73.804767130000016, 5.051538032834252 ], [ -73.804801312, 5.05137333683424 ], [ -73.804803013000026, 5.051365141834277 ], [ -73.80486528199998, 5.051065114834255 ], [ -73.80490951500002, 5.050847187834264 ], [ -73.804912249999973, 5.050833712834261 ], [ -73.804942073, 5.050686783834282 ], [ -73.804942756, 5.050683416834308 ], [ -73.80498723, 5.050464300834277 ], [ -73.805121074, 5.050128201834307 ], [ -73.805164483, 5.050056305834297 ], [ -73.805169350000028, 5.050048244834341 ], [ -73.805239629000027, 5.049931845834309 ], [ -73.805253900000025, 5.049908209834332 ], [ -73.805311431, 5.049812923834307 ], [ -73.805333322000024, 5.049780895834342 ], [ -73.805385193, 5.0497050038343 ], [ -73.805390440999986, 5.049697325834325 ], [ -73.805476286999976, 5.049571727834318 ], [ -73.805492013999981, 5.049512336834343 ], [ -73.805492333000018, 5.049511133834331 ], [ -73.805503003000013, 5.049470840834348 ], [ -73.80550647299998, 5.049457736834347 ], [ -73.805507498999987, 5.049453862834332 ], [ -73.80554039499998, 5.049402221834359 ], [ -73.805750922000016, 5.049071727834344 ], [ -73.805713384, 5.049052237834346 ], [ -73.805612565999979, 5.048999891834336 ], [ -73.80577970500002, 5.048708063834336 ], [ -73.805819811, 5.048656400834372 ], [ -73.805985872, 5.048662211834369 ], [ -73.806098522000013, 5.048472407834372 ], [ -73.806111939, 5.048449801834358 ], [ -73.80613487, 5.048386646834341 ], [ -73.806346894, 5.048024973834364 ], [ -73.806399718000023, 5.0479899038344 ], [ -73.806548642999985, 5.047892347834387 ], [ -73.806903552, 5.048185350834348 ], [ -73.806995218999987, 5.048076285834407 ], [ -73.806960994, 5.047754705834366 ], [ -73.807660082999973, 5.046595062834409 ], [ -73.807700274000013, 5.04633667783442 ], [ -73.807889257999989, 5.046296560834456 ], [ -73.808009302000016, 5.046801928834443 ], [ -73.808094816999983, 5.047720723834374 ], [ -73.808118506000028, 5.048079270834383 ], [ -73.808134653000025, 5.048323676834358 ], [ -73.808184731999972, 5.04843120383436 ], [ -73.808340617999988, 5.048765914834343 ], [ -73.808371141, 5.04880803683437 ], [ -73.809288572000014, 5.049960399834289 ], [ -73.80930404999998, 5.04997984183434 ], [ -73.809344101000022, 5.050060249834317 ], [ -73.809620499, 5.050542099834265 ], [ -73.809627093000017, 5.050553595834281 ], [ -73.809659184, 5.050609541834314 ], [ -73.809738761, 5.050606357834281 ], [ -73.809738818000028, 5.050606355834297 ], [ -73.809806877000028, 5.050603633834322 ], [ -73.809892537999986, 5.050613151834278 ], [ -73.809928230000025, 5.050625048834316 ], [ -73.809985337, 5.050679776834321 ], [ -73.810116207000021, 5.050958173834299 ], [ -73.81012182500001, 5.050979900834285 ], [ -73.810323219999987, 5.051336507834289 ], [ -73.810492162, 5.051767190834267 ], [ -73.810643442000014, 5.052258958834271 ], [ -73.810698332000015, 5.052390852834254 ], [ -73.810728695000023, 5.05246380883425 ], [ -73.810763195, 5.052546706834211 ], [ -73.810789146, 5.052609063834256 ], [ -73.810804126999983, 5.052645060834247 ], [ -73.810866189000023, 5.052794186834245 ], [ -73.810934869999983, 5.052880348834237 ], [ -73.810969638000017, 5.052942888834227 ], [ -73.809815501, 5.053617127834182 ], [ -73.808197479, 5.054403146834188 ], [ -73.808222278000017, 5.054448527834193 ], [ -73.808283911999979, 5.054508388834151 ], [ -73.8082913, 5.054515564834146 ], [ -73.808328003999975, 5.05455121283419 ], [ -73.808340574999988, 5.054563421834173 ], [ -73.808393973000022, 5.05468211683419 ], [ -73.808410133999985, 5.054829556834166 ], [ -73.808386338999981, 5.054948529834149 ], [ -73.808372061999989, 5.055005636834174 ], [ -73.808345818000021, 5.055031880834141 ], [ -73.808329232, 5.055048466834164 ], [ -73.808262607000017, 5.05508653883415 ], [ -73.808153151999988, 5.055138886834146 ], [ -73.808077008999987, 5.055167439834139 ], [ -73.80798209, 5.055190039834164 ], [ -73.807977072000028, 5.055191234834141 ], [ -73.807829545, 5.055200752834158 ], [ -73.807755187, 5.055187070834124 ], [ -73.807573752999986, 5.05510378983413 ], [ -73.807559325999989, 5.05509723183413 ], [ -73.807475599999975, 5.055059174834149 ], [ -73.807377448000011, 5.055035379834143 ], [ -73.807264423, 5.055041328834156 ], [ -73.807088938, 5.055100814834155 ], [ -73.806969717000015, 5.055148921834152 ], [ -73.806959205, 5.055153163834137 ], [ -73.806919401000016, 5.055169224834137 ], [ -73.806910845, 5.055174016834167 ], [ -73.806741734000013, 5.055268718834169 ], [ -73.806730141, 5.055275210834123 ], [ -73.806723181999985, 5.055279107834123 ], [ -73.806696327, 5.055294146834129 ], [ -73.806692820000023, 5.055296284834141 ], [ -73.806452432000015, 5.055442862834131 ], [ -73.806387738000012, 5.055492334834136 ], [ -73.806379898999978, 5.055498328834125 ], [ -73.806315623999978, 5.055547480834153 ], [ -73.806304442, 5.055556031834162 ], [ -73.806239721, 5.055605524834109 ], [ -73.806199615000025, 5.055636193834119 ], [ -73.806009258000017, 5.055799781834134 ], [ -73.805925977000015, 5.055883062834132 ], [ -73.805833772000028, 5.055966343834134 ], [ -73.805780234999986, 5.056005010834151 ], [ -73.805699928000024, 5.056031779834131 ], [ -73.805583929000022, 5.05604367683411 ], [ -73.805417367000018, 5.056055573834145 ], [ -73.805414219999989, 5.056055613834126 ], [ -73.805343884000024, 5.05605650383415 ], [ -73.805225557000028, 5.056058001834108 ], [ -73.805182394999974, 5.056058548834119 ], [ -73.805136015000016, 5.056049919834137 ], [ -73.805126901999984, 5.056048224834109 ], [ -73.805015981999986, 5.056027587834126 ], [ -73.805003702000022, 5.056025302834128 ], [ -73.804926603000013, 5.056010958834112 ], [ -73.804885645000013, 5.056000201834128 ], [ -73.804657803, 5.055940364834147 ], [ -73.804632145000028, 5.055933626834126 ], [ -73.804224662000024, 5.055799781834134 ], [ -73.804108663000022, 5.055740295834143 ], [ -73.804090425000027, 5.055731176834112 ], [ -73.803805281999985, 5.055588604834157 ], [ -73.803797186999986, 5.055582890834108 ], [ -73.803660391999983, 5.055486328834155 ], [ -73.803603028, 5.05544583683412 ], [ -73.803584447999981, 5.055401245834111 ], [ -73.803578216, 5.055386288834151 ], [ -73.803563950000012, 5.055352049834151 ], [ -73.803558413000019, 5.055338761834159 ], [ -73.803805020000027, 5.055314063834154 ], [ -73.803836118, 5.055310949834118 ], [ -73.80395368, 5.055299175834151 ], [ -73.803939195999988, 5.055085332834176 ], [ -73.803943955000022, 5.055049640834138 ] ] ] ] } }
]
}
