{
"type": "FeatureCollection",
"name": "Placa_huellas_con_vereda",
"crs": { "type": "name", "properties": { "name": "urn:ogc:def:crs:OGC:1.3:CRS84" } },
"features": [
{ "type": "Feature", "properties": { "DIRECTION": "Vereda ranchería sector Granadillo", "longitud": 1134.18, "vereda": "EL HATO" }, "geometry": { "type": "LineString", "coordinates": [ [ -73.7196606, 4.9989065 ], [ -73.7196604, 4.9989061 ], [ -73.7206613, 4.998789 ], [ -73.7217429, 4.9985685 ], [ -73.7230407, 4.9981769 ], [ -73.723409, 4.9979067 ], [ -73.7245787, 4.9972758 ], [ -73.7250333, 4.9970673 ], [ -73.7254239, 4.9972343 ], [ -73.7263219, 4.9977568 ], [ -73.7264688, 4.9977327 ], [ -73.7265968, 4.9974189 ], [ -73.7268183, 4.9971033 ], [ -73.7274475, 4.9970106 ], [ -73.7278629, 4.9967931 ], [ -73.7288425, 4.9964539 ] ] } },
{ "type": "Feature", "properties": { "DIRECTION": "Vereda Ranchería sector granadillo", "longitud": 121.43, "vereda": "EL HATO" }, "geometry": { "type": "LineString", "coordinates": [ [ -73.7223111, 4.9955347 ], [ -73.7226417, 4.9953955 ], [ -73.7230066, 4.9952904 ], [ -73.7233531, 4.9952123 ], [ -73.7233515, 4.9952125 ] ] } },
{ "type": "Feature", "properties": { "DIRECTION": "Vereda ranchería", "longitud": 148.17, "vereda": "EL HATO" }, "geometry": { "type": "LineString", "coordinates": [ [ -73.7208657, 4.9931342 ], [ -73.7210612, 4.9937665 ], [ -73.7212944, 4.9944028 ] ] } },
{ "type": "Feature", "properties": { "DIRECTION": null, "longitud": 44.13, "vereda": "EL HATO" }, "geometry": { "type": "LineString", "coordinates": [ [ -73.7155015, 4.9821058 ], [ -73.7158159, 4.9823504 ] ] } },
{ "type": "Feature", "properties": { "DIRECTION": null, "longitud": 41.18, "vereda": "EL HATO" }, "geometry": { "type": "LineString", "coordinates": [ [ -73.7201911, 4.9816271 ], [ -73.7204038, 4.9816396 ], [ -73.7205137, 4.9817538 ] ] } },
{ "type": "Feature", "properties": { "DIRECTION": null, "longitud": 108.49, "vereda": "EL HATO" }, "geometry": { "type": "LineString", "coordinates": [ [ -73.730601, 4.9828766 ], [ -73.7309567, 4.9825884 ], [ -73.7311467, 4.9821019 ] ] } },
{ "type": "Feature", "properties": { "DIRECTION": null, "longitud": 103.56, "vereda": "EL HATO" }, "geometry": { "type": "LineString", "coordinates": [ [ -73.7234888, 4.9807035 ], [ -73.7234568, 4.9806146 ], [ -73.7234191, 4.9805224 ], [ -73.7235071, 4.9804231 ], [ -73.7236898, 4.9803731 ], [ -73.7238132, 4.9803138 ], [ -73.723864, 4.9802677 ], [ -73.72399320000001, 4.9800979 ] ] } },
{ "type": "Feature", "properties": { "DIRECTION": "Vereda ranchería sector el rincón", "longitud": 45.96, "vereda": "EL HATO" }, "geometry": { "type": "LineString", "coordinates": [ [ -73.7246477, 4.9794269 ], [ -73.7246894, 4.9793267 ], [ -73.7247013, 4.9792138 ], [ -73.7246847, 4.979021 ] ] } },
{ "type": "Feature", "properties": { "DIRECTION": "Vereda ranchería el rincon y hato", "longitud": 346.45, "vereda": "EL HATO" }, "geometry": { "type": "LineString", "coordinates": [ [ -73.7348459, 4.9779404 ], [ -73.7349759, 4.9780405 ], [ -73.7350017, 4.9780926 ], [ -73.7350043, 4.978137 ], [ -73.7348605, 4.9786652 ], [ -73.7347823, 4.9787389 ], [ -73.734583, 4.9787666 ], [ -73.7341859, 4.9790973 ], [ -73.7338773, 4.9794377 ], [ -73.7336107, 4.9796938 ], [ -73.7331687, 4.9798455 ], [ -73.7330225, 4.9799702 ] ] } },
{ "type": "Feature", "properties": { "DIRECTION": "vereda el Hato Centro", "longitud": 63.18, "vereda": "RANCHERA" }, "geometry": { "type": "LineString", "coordinates": [ [ -73.7464712, 4.996103 ], [ -73.7465202, 4.9960491 ], [ -73.7465828, 4.9959475 ], [ -73.7467175, 4.9956449 ], [ -73.7467311, 4.9955993 ] ] } },
{ "type": "Feature", "properties": { "DIRECTION": "Vereda el Hato", "longitud": 27.44, "vereda": "RANCHERA" }, "geometry": { "type": "LineString", "coordinates": [ [ -73.7311369, 4.9971228 ], [ -73.7310548, 4.9972204 ], [ -73.7309956, 4.9972684 ], [ -73.7309517, 4.9972704 ] ] } },
{ "type": "Feature", "properties": { "DIRECTION": "Vereda el Hato Vía ranchería", "longitud": 168.9, "vereda": "RANCHERA" }, "geometry": { "type": "LineString", "coordinates": [ [ -73.7357466, 4.9777901 ], [ -73.7357464, 4.977789 ], [ -73.7358328, 4.9777635 ], [ -73.735922, 4.977769 ], [ -73.7363499, 4.9781075 ], [ -73.7367434, 4.9782782 ], [ -73.7368748, 4.978277 ], [ -73.7371098, 4.9782441 ] ] } },
{ "type": "Feature", "properties": { "DIRECTION": "Vereda el Hato  Camino Colorado", "longitud": 112.89, "vereda": "RANCHERA" }, "geometry": { "type": "LineString", "coordinates": [ [ -73.7392818, 4.9791942 ], [ -73.7392814, 4.9791942 ], [ -73.7394333, 4.9793455 ], [ -73.7396195, 4.9794136 ], [ -73.7397958, 4.9794681 ], [ -73.7401489, 4.9796975 ] ] } },
{ "type": "Feature", "properties": { "DIRECTION": "Vereda el Hato Camino Colorado", "longitud": 110.78, "vereda": "RANCHERA" }, "geometry": { "type": "LineString", "coordinates": [ [ -73.742406, 4.981803 ], [ -73.7424024, 4.9818043 ], [ -73.7424551, 4.9820644 ], [ -73.7424174, 4.9822728 ], [ -73.7425191, 4.9824788 ], [ -73.7428086, 4.982496 ] ] } },
{ "type": "Feature", "properties": { "DIRECTION": "Vereda el hato centro", "longitud": 42.51, "vereda": "RANCHERA" }, "geometry": { "type": "LineString", "coordinates": [ [ -73.7480724, 4.9930547 ], [ -73.7480759, 4.9930579 ], [ -73.7481414, 4.9930012 ], [ -73.7483146, 4.9930299 ], [ -73.7484275, 4.9930587 ] ] } },
{ "type": "Feature", "properties": { "DIRECTION": "Vereda el Hato centro", "longitud": 57.88, "vereda": "RANCHERA" }, "geometry": { "type": "LineString", "coordinates": [ [ -73.7486043, 4.9930399 ], [ -73.7485927, 4.9930505 ], [ -73.7483764, 4.9935095 ] ] } },
{ "type": "Feature", "properties": { "DIRECTION": "Vereda el Hato", "longitud": 42.5, "vereda": "RANCHERA" }, "geometry": { "type": "LineString", "coordinates": [ [ -73.75176660000001, 4.9885472 ], [ -73.7518466, 4.9887148 ], [ -73.7519064, 4.988786 ], [ -73.7519938, 4.9888445 ] ] } },
{ "type": "Feature", "properties": { "DIRECTION": "Vereda el Hato sector el Uval", "longitud": 77.82, "vereda": "RANCHERA" }, "geometry": { "type": "LineString", "coordinates": [ [ -73.7489706, 4.9728947 ], [ -73.7488494, 4.9726542 ], [ -73.7487311, 4.9723853 ], [ -73.7486519, 4.9722696 ] ] } },
{ "type": "Feature", "properties": { "DIRECTION": "Vereda el hato sector el Uval", "longitud": 101.68, "vereda": "RANCHERA" }, "geometry": { "type": "LineString", "coordinates": [ [ -73.7503028, 4.9678333 ], [ -73.7504219, 4.9678486 ], [ -73.7508969, 4.9679898 ], [ -73.7511801, 4.968093 ] ] } },
{ "type": "Feature", "properties": { "DIRECTION": "Vereda el Hato sector el Uval", "longitud": 123.86, "vereda": "RANCHERA" }, "geometry": { "type": "LineString", "coordinates": [ [ -73.7527845, 4.9642496 ], [ -73.753213, 4.9645941 ], [ -73.7533711, 4.9647174 ], [ -73.7535562, 4.9648164 ], [ -73.7535975, 4.9648921 ], [ -73.7536177, 4.9649609 ] ] } },
{ "type": "Feature", "properties": { "DIRECTION": "Vereda el Hato sector el Uval", "longitud": 107.13, "vereda": "RANCHERA" }, "geometry": { "type": "LineString", "coordinates": [ [ -73.7524226, 4.9666215 ], [ -73.7521839, 4.9668789 ], [ -73.7520036, 4.9671299 ], [ -73.7518526, 4.9672972 ], [ -73.7517881, 4.9673479 ] ] } },
{ "type": "Feature", "properties": { "DIRECTION": "Vereda el Hato sector el Uval", "longitud": 265.07, "vereda": "RANCHERA" }, "geometry": { "type": "LineString", "coordinates": [ [ -73.7509779, 4.9713492 ], [ -73.7509845, 4.9716105 ], [ -73.7510499, 4.971965 ], [ -73.7510975, 4.9723505 ], [ -73.7510604, 4.9725292 ], [ -73.750888, 4.9730009 ], [ -73.7507205, 4.9733163 ], [ -73.7506838, 4.9734229 ], [ -73.7506699, 4.9736541 ] ] } },
{ "type": "Feature", "properties": { "DIRECTION": "Vereda el Hato vía el Uval", "longitud": 147.01, "vereda": "RANCHERA" }, "geometry": { "type": "LineString", "coordinates": [ [ -73.7503391, 4.9756061 ], [ -73.7497466, 4.9765098 ], [ -73.749651, 4.976612 ], [ -73.7495667, 4.9766787 ] ] } },
{ "type": "Feature", "properties": { "DIRECTION": "Vereda Tierra Negra Agua blanca", "longitud": 93.09, "vereda": "TIERRA NEGRA" }, "geometry": { "type": "LineString", "coordinates": [ [ -73.765375, 4.9873522 ], [ -73.765459, 4.9875675 ], [ -73.7656303, 4.9881534 ] ] } },
{ "type": "Feature", "properties": { "DIRECTION": "Via tierra Negra - el Hato", "longitud": 339.36, "vereda": "RANCHERA" }, "geometry": { "type": "LineString", "coordinates": [ [ -73.7582114, 4.9877949 ], [ -73.7577328, 4.987143 ], [ -73.7575895, 4.9870365 ], [ -73.757516, 4.987023 ], [ -73.7574541, 4.9870657 ], [ -73.7572998, 4.9872023 ], [ -73.7570889, 4.9872085 ], [ -73.7567672, 4.9871555 ], [ -73.7566896, 4.9871281 ], [ -73.7566666, 4.987037 ], [ -73.7567416, 4.9869662 ], [ -73.7569007, 4.9868787 ], [ -73.7569888, 4.986865 ], [ -73.7571592, 4.9867724 ], [ -73.7572283, 4.9866778 ], [ -73.7570378, 4.9865675 ], [ -73.7569447, 4.9866078 ] ] } },
{ "type": "Feature", "properties": { "DIRECTION": "Vía el Hato - tierra negra", "longitud": 476.3, "vereda": "RANCHERA" }, "geometry": { "type": "LineString", "coordinates": [ [ -73.7569665, 4.9865869 ], [ -73.756969, 4.9865919 ], [ -73.7565834, 4.9867264 ], [ -73.7563244, 4.9868392 ], [ -73.7559311, 4.9870532 ], [ -73.7555742, 4.9871394 ], [ -73.7548249, 4.987615 ], [ -73.7542152, 4.987999 ], [ -73.7537573, 4.9883538 ], [ -73.7535385, 4.9884981 ], [ -73.7532135, 4.9885867 ] ] } },
{ "type": "Feature", "properties": { "DIRECTION": "Vereda el Hato", "longitud": 115.38, "vereda": "RANCHERA" }, "geometry": { "type": "LineString", "coordinates": [ [ -73.7440549, 5.0018696 ], [ -73.7437544, 5.0025737 ], [ -73.7436388, 5.0027328 ], [ -73.7436122, 5.0028089 ] ] } },
{ "type": "Feature", "properties": { "DIRECTION": "Vereda Tierra Negra", "longitud": 161.2, "vereda": "TIERRA NEGRA" }, "geometry": { "type": "LineString", "coordinates": [ [ -73.7800869, 5.0071804 ], [ -73.7803809, 5.0069883 ], [ -73.780553, 5.0068375 ], [ -73.7807096, 5.0067231 ], [ -73.7808387, 5.0065591 ], [ -73.7811399, 5.0061946 ] ] } },
{ "type": "Feature", "properties": { "DIRECTION": "Vereda Tierra Negra", "longitud": 159.35, "vereda": "TIERRA NEGRA" }, "geometry": { "type": "LineString", "coordinates": [ [ -73.7844731, 5.0036769 ], [ -73.7849142, 5.0035404 ], [ -73.7855416, 5.0031692 ], [ -73.7857551, 5.0030451 ] ] } },
{ "type": "Feature", "properties": { "DIRECTION": "Vereda Tierra Negra Agua blanca", "longitud": 117.7, "vereda": "TIERRA NEGRA" }, "geometry": { "type": "LineString", "coordinates": [ [ -73.7626886, 4.9908272 ], [ -73.7623565, 4.9912112 ], [ -73.7619764, 4.991616 ] ] } },
{ "type": "Feature", "properties": { "DIRECTION": "Vereda Tierra negra", "longitud": 115.81, "vereda": "TIERRA NEGRA" }, "geometry": { "type": "LineString", "coordinates": [ [ -73.7769476, 5.0075413 ], [ -73.7771555, 5.0075828 ], [ -73.7773241, 5.0076541 ], [ -73.7774713, 5.0079015 ], [ -73.7776564, 5.0082135 ] ] } },
{ "type": "Feature", "properties": { "DIRECTION": "Vereda Tierra Negra", "longitud": 102.65, "vereda": "TIERRA NEGRA" }, "geometry": { "type": "LineString", "coordinates": [ [ -73.789735, 5.0008035 ], [ -73.7893137, 5.0010799 ], [ -73.7890946, 5.0012649 ], [ -73.7889897, 5.001325 ], [ -73.7890041, 5.0013291 ] ] } },
{ "type": "Feature", "properties": { "DIRECTION": "Vereda Tierra Negra Agua blanca", "longitud": 200.63, "vereda": "TIERRA NEGRA" }, "geometry": { "type": "LineString", "coordinates": [ [ -73.7659666, 4.9829758 ], [ -73.7663509, 4.9829373 ], [ -73.7669434, 4.9829718 ], [ -73.7674415, 4.9829607 ], [ -73.7677584, 4.9828644 ] ] } },
{ "type": "Feature", "properties": { "DIRECTION": "Vereda Tierra Negra Laguna", "longitud": 116.8, "vereda": "TIERRA NEGRA" }, "geometry": { "type": "LineString", "coordinates": [ [ -73.7697136, 4.9807807 ], [ -73.7697716, 4.9806479 ], [ -73.769698600000012, 4.9804492 ], [ -73.7694753, 4.9803045 ], [ -73.7692417, 4.9800887 ], [ -73.769172, 4.9799982 ] ] } },
{ "type": "Feature", "properties": { "DIRECTION": "Vereda chaleche", "longitud": 82.09, "vereda": "CHALECHE" }, "geometry": { "type": "LineString", "coordinates": [ [ -73.7855883, 4.9845677 ], [ -73.7858013, 4.9841932 ], [ -73.7859274, 4.9839089 ] ] } },
{ "type": "Feature", "properties": { "DIRECTION": "Vereda Chaleche", "longitud": 100.81, "vereda": "CHALECHE" }, "geometry": { "type": "LineString", "coordinates": [ [ -73.7936476, 4.9821199 ], [ -73.7942811, 4.9827737 ] ] } },
{ "type": "Feature", "properties": { "DIRECTION": null, "longitud": 52.72, "vereda": "CHALECHE" }, "geometry": { "type": "LineString", "coordinates": [ [ -73.7838877, 4.9878921 ], [ -73.7836649, 4.9882598 ], [ -73.7836264, 4.9882857 ] ] } },
{ "type": "Feature", "properties": { "DIRECTION": null, "longitud": 132.51, "vereda": "TIERRA NEGRA" }, "geometry": { "type": "LineString", "coordinates": [ [ -73.7823236, 4.9898416 ], [ -73.7815424, 4.9907483 ] ] } },
{ "type": "Feature", "properties": { "DIRECTION": "Vereda Chaleche", "longitud": 113.8, "vereda": "CHALECHE" }, "geometry": { "type": "LineString", "coordinates": [ [ -73.805487, 4.983007 ], [ -73.8049433, 4.9829655 ], [ -73.8044629, 4.9829439 ] ] } },
{ "type": "Feature", "properties": { "DIRECTION": "Vereda Chaleche", "longitud": 30.63, "vereda": "CHALECHE" }, "geometry": { "type": "LineString", "coordinates": [ [ -73.8052816, 4.9793937 ], [ -73.8050064, 4.9793703 ] ] } },
{ "type": "Feature", "properties": { "DIRECTION": null, "longitud": 67.22, "vereda": "CHALECHE" }, "geometry": { "type": "LineString", "coordinates": [ [ -73.8045367, 4.9880473 ], [ -73.8049112, 4.9884257 ], [ -73.8049663, 4.988476 ] ] } },
{ "type": "Feature", "properties": { "DIRECTION": "Vereda Chaleche", "longitud": 88.77, "vereda": "CHALECHE" }, "geometry": { "type": "LineString", "coordinates": [ [ -73.8083604, 4.9915746 ], [ -73.8081696, 4.9915885 ], [ -73.807865600000014, 4.9914517 ], [ -73.8076235, 4.9913189 ] ] } },
{ "type": "Feature", "properties": { "DIRECTION": "Vereda chaleche", "longitud": 189.14, "vereda": "CHALECHE" }, "geometry": { "type": "LineString", "coordinates": [ [ -73.8076238, 4.9913258 ], [ -73.8072187, 4.991193 ], [ -73.8070086, 4.9910796 ], [ -73.8063537, 4.9909427 ], [ -73.8059913, 4.9908596 ] ] } },
{ "type": "Feature", "properties": { "DIRECTION": "Vereda Chaleche", "longitud": 120.11, "vereda": "CHALECHE" }, "geometry": { "type": "LineString", "coordinates": [ [ -73.8060244, 4.9908356 ], [ -73.8055566, 4.9907816 ], [ -73.8049598, 4.9909181 ] ] } },
{ "type": "Feature", "properties": { "DIRECTION": "Vereda Chaleche", "longitud": 66.74, "vereda": "CHALECHE" }, "geometry": { "type": "LineString", "coordinates": [ [ -73.8044704, 4.9910273 ], [ -73.8042046, 4.9912006 ], [ -73.8039707, 4.9910377 ] ] } },
{ "type": "Feature", "properties": { "DIRECTION": "Vereda Chaleche", "longitud": 120.18, "vereda": "CHALECHE" }, "geometry": { "type": "LineString", "coordinates": [ [ -73.8036525, 4.9908383 ], [ -73.8032381, 4.9907095 ], [ -73.802645, 4.9904433 ] ] } },
{ "type": "Feature", "properties": { "DIRECTION": "Vereda Chaleche", "longitud": 114.22, "vereda": "CHALECHE" }, "geometry": { "type": "LineString", "coordinates": [ [ -73.8017317, 4.9935226 ], [ -73.8020187, 4.993319 ], [ -73.802513, 4.992853 ] ] } },
{ "type": "Feature", "properties": { "DIRECTION": "Vereda San José", "longitud": 76.56, "vereda": "SAN JOSÉ" }, "geometry": { "type": "LineString", "coordinates": [ [ -73.7934112, 4.9977286 ], [ -73.793465, 4.9975508 ], [ -73.7935003, 4.9970455 ] ] } },
{ "type": "Feature", "properties": { "DIRECTION": "Vereda San José", "longitud": 85.0, "vereda": "SAN JOSÉ" }, "geometry": { "type": "LineString", "coordinates": [ [ -73.7962611, 5.0021919 ], [ -73.79582, 5.0019679 ], [ -73.7957431, 5.0019613 ], [ -73.7955906, 5.0020829 ] ] } },
{ "type": "Feature", "properties": { "DIRECTION": "Vereda San José", "longitud": 81.37, "vereda": "SAN JOSÉ" }, "geometry": { "type": "LineString", "coordinates": [ [ -73.7921801, 5.0042436 ], [ -73.7921246, 5.0046734 ], [ -73.7921167, 5.0048556 ], [ -73.7921043, 5.004975 ] ] } },
{ "type": "Feature", "properties": { "DIRECTION": "Vereda SanJose escuela", "longitud": 48.61, "vereda": "CHALECHE" }, "geometry": { "type": "LineString", "coordinates": [ [ -73.8081886, 5.0089372 ], [ -73.8079207, 5.009002 ], [ -73.8077613, 5.0090349 ] ] } },
{ "type": "Feature", "properties": { "DIRECTION": "Vereda San José Escuela", "longitud": 52.72, "vereda": "SAN JOSÉ" }, "geometry": { "type": "LineString", "coordinates": [ [ -73.8077752, 5.0090096 ], [ -73.8077749, 5.0090093 ], [ -73.807605, 5.0092841 ], [ -73.807583100000016, 5.0094355 ] ] } },
{ "type": "Feature", "properties": { "DIRECTION": "Vereda SanJose Escuela", "longitud": 65.34, "vereda": "SAN JOSÉ" }, "geometry": { "type": "LineString", "coordinates": [ [ -73.8075694, 5.0094261 ], [ -73.8074838, 5.0095851 ], [ -73.8074207, 5.0097974 ], [ -73.8074682, 5.0099799 ] ] } },
{ "type": "Feature", "properties": { "DIRECTION": "Vereda San José escuela", "longitud": 276.31, "vereda": "SAN JOSÉ" }, "geometry": { "type": "LineString", "coordinates": [ [ -73.8081037, 5.0116303 ], [ -73.807997, 5.012321 ], [ -73.8080429, 5.0124835 ], [ -73.8080259, 5.0128465 ], [ -73.8079122, 5.0131705 ], [ -73.8078173, 5.0134255 ], [ -73.8076322, 5.0140283 ], [ -73.8076334, 5.0140493 ] ] } },
{ "type": "Feature", "properties": { "DIRECTION": "Vereda Boitiva Sector el Cajón", "longitud": 58.33, "vereda": "BOITIVA" }, "geometry": { "type": "LineString", "coordinates": [ [ -73.7915154, 5.0430416 ], [ -73.7914589, 5.0430117 ], [ -73.7910637, 5.0427715 ] ] } },
{ "type": "Feature", "properties": { "DIRECTION": "Vereda Boitiva sector el Cajón", "longitud": 131.75, "vereda": "BOITIVA" }, "geometry": { "type": "LineString", "coordinates": [ [ -73.7910767, 5.0427705 ], [ -73.7908743, 5.0424911 ], [ -73.7907969, 5.042315 ], [ -73.7906672, 5.0420604 ], [ -73.7905168, 5.041725 ] ] } },
{ "type": "Feature", "properties": { "DIRECTION": "Vereda espigas sector Tanques", "longitud": 64.89, "vereda": "ESPIGAS" }, "geometry": { "type": "LineString", "coordinates": [ [ -73.7944398, 5.0375677 ], [ -73.7946006, 5.0374249 ], [ -73.7948309, 5.037134 ] ] } },
{ "type": "Feature", "properties": { "DIRECTION": "Vereda Espigas Sector Tanques", "longitud": 118.3, "vereda": "ESPIGAS" }, "geometry": { "type": "LineString", "coordinates": [ [ -73.7959708, 5.0359314 ], [ -73.7956654, 5.0360664 ], [ -73.7952398, 5.0361686 ], [ -73.7949537, 5.0362422 ] ] } },
{ "type": "Feature", "properties": { "DIRECTION": null, "longitud": 286.28, "vereda": "ESPIGAS" }, "geometry": { "type": "LineString", "coordinates": [ [ -73.7949406, 5.0362444 ], [ -73.794727, 5.0363579 ], [ -73.7946783, 5.0363418 ], [ -73.7946613, 5.0362685 ], [ -73.7946842, 5.0362263 ], [ -73.7947618, 5.0361313 ], [ -73.7951295, 5.0357431 ], [ -73.7951515, 5.0356695 ], [ -73.795149, 5.0356801 ], [ -73.7950978, 5.0356679 ], [ -73.7950196, 5.0356772 ], [ -73.7948577, 5.0357719 ], [ -73.7944851, 5.0359796 ], [ -73.7943364, 5.0360866 ], [ -73.7942165, 5.0361344 ], [ -73.7941814, 5.0360795 ], [ -73.794277, 5.0357948 ] ] } },
{ "type": "Feature", "properties": { "DIRECTION": "Vereda boitiva sector el cajón", "longitud": 108.48, "vereda": "ESPIGAS" }, "geometry": { "type": "LineString", "coordinates": [ [ -73.78822, 5.0402017 ], [ -73.7881133, 5.040315 ], [ -73.787905, 5.0411133 ] ] } },
{ "type": "Feature", "properties": { "DIRECTION": "Vereda espigas sector el cajón", "longitud": 123.56, "vereda": "ESPIGAS" }, "geometry": { "type": "LineString", "coordinates": [ [ -73.7881567, 5.0394917 ], [ -73.7881667, 5.0392133 ], [ -73.78804, 5.0389683 ], [ -73.7875783, 5.0386483 ] ] } },
{ "type": "Feature", "properties": { "DIRECTION": "Vereda Gobernador", "longitud": 106.97, "vereda": "GOBERNADOR" }, "geometry": { "type": "LineString", "coordinates": [ [ -73.7991317, 5.0394117 ], [ -73.79901, 5.0391983 ], [ -73.79894, 5.0390867 ], [ -73.798945, 5.0390283 ], [ -73.7990867, 5.03888 ], [ -73.799195, 5.038745 ], [ -73.7991833, 5.0386883 ], [ -73.7991133, 5.038625 ] ] } },
{ "type": "Feature", "properties": { "DIRECTION": "Vereda Gobernador Castillo", "longitud": 199.65, "vereda": "GOBERNADOR" }, "geometry": { "type": "LineString", "coordinates": [ [ -73.7990983, 5.038615 ], [ -73.798605, 5.0381283 ], [ -73.79823, 5.0377283 ], [ -73.7982067, 5.03766 ], [ -73.7983117, 5.0374667 ], [ -73.7983133, 5.0374167 ], [ -73.7982617, 5.0372983 ], [ -73.7983017, 5.0372167 ] ] } },
{ "type": "Feature", "properties": { "DIRECTION": "Vereda Gobernador", "longitud": 113.37, "vereda": "GOBERNADOR" }, "geometry": { "type": "LineString", "coordinates": [ [ -73.798605, 5.0366683 ], [ -73.7989867, 5.036405 ], [ -73.7991267, 5.0363267 ], [ -73.7992317, 5.03622 ], [ -73.7993617, 5.0360067 ] ] } },
{ "type": "Feature", "properties": { "DIRECTION": "Vereda Gobernador", "longitud": 83.54, "vereda": "ESPIGAS" }, "geometry": { "type": "LineString", "coordinates": [ [ -73.8022333, 5.0303317 ], [ -73.802365, 5.0302167 ], [ -73.8025867, 5.0300617 ], [ -73.802875, 5.0299517 ] ] } },
{ "type": "Feature", "properties": { "DIRECTION": "Vereda Gobernador", "longitud": 125.14, "vereda": "GOBERNADOR" }, "geometry": { "type": "LineString", "coordinates": [ [ -73.8046517, 5.0274283 ], [ -73.8047367, 5.0274333 ], [ -73.8052333, 5.0272133 ], [ -73.8053233, 5.027155 ], [ -73.80536, 5.02714 ], [ -73.80543, 5.0271633 ], [ -73.805595, 5.02739 ] ] } },
{ "type": "Feature", "properties": { "DIRECTION": "Vereda Gobernador", "longitud": 147.22, "vereda": "GOBERNADOR" }, "geometry": { "type": "LineString", "coordinates": [ [ -73.8054933, 5.0277817 ], [ -73.8054467, 5.0278183 ], [ -73.8054367, 5.02789 ], [ -73.8055733, 5.0282067 ], [ -73.8058417, 5.0286067 ], [ -73.8060617, 5.0289067 ] ] } },
{ "type": "Feature", "properties": { "DIRECTION": "Vereda Gobernador", "longitud": 71.38, "vereda": "GOBERNADOR" }, "geometry": { "type": "LineString", "coordinates": [ [ -73.8062383, 5.0303233 ], [ -73.8061683, 5.0306817 ], [ -73.8061233, 5.0309583 ] ] } },
{ "type": "Feature", "properties": { "DIRECTION": "Vereda Gobernador", "longitud": 112.36, "vereda": "GOBERNADOR" }, "geometry": { "type": "LineString", "coordinates": [ [ -73.8061817, 5.03215 ], [ -73.8061517, 5.032315 ], [ -73.80608, 5.0328333 ], [ -73.8060933, 5.03296 ], [ -73.8061533, 5.0331483 ] ] } },
{ "type": "Feature", "properties": { "DIRECTION": "Vereda Gobernador", "longitud": 123.07, "vereda": "GOBERNADOR" }, "geometry": { "type": "LineString", "coordinates": [ [ -73.80612, 5.03314 ], [ -73.8063867, 5.03369 ], [ -73.8064567, 5.0338883 ], [ -73.80658, 5.0341517 ] ] } },
{ "type": "Feature", "properties": { "DIRECTION": "Vereda Gobernador Castillo", "longitud": 111.31, "vereda": "GOBERNADOR" }, "geometry": { "type": "LineString", "coordinates": [ [ -73.8007617, 5.0391217 ], [ -73.80079, 5.0388833 ], [ -73.8008333, 5.0386567 ], [ -73.8009217, 5.0381283 ] ] } },
{ "type": "Feature", "properties": { "DIRECTION": "Vereda Gobernador Salón", "longitud": 75.78, "vereda": "GOBERNADOR" }, "geometry": { "type": "LineString", "coordinates": [ [ -73.8009367, 5.0380983 ], [ -73.8009567, 5.0374133 ] ] } },
{ "type": "Feature", "properties": { "DIRECTION": "Vereda Gobernador Salón", "longitud": 43.89, "vereda": "GOBERNADOR" }, "geometry": { "type": "LineString", "coordinates": [ [ -73.8014533, 5.0356017 ], [ -73.8014583, 5.035465 ], [ -73.801435, 5.0353633 ], [ -73.80145, 5.0352083 ] ] } },
{ "type": "Feature", "properties": { "DIRECTION": "Vereda Gobernador alto", "longitud": 159.82, "vereda": "GOBERNADOR" }, "geometry": { "type": "LineString", "coordinates": [ [ -73.806185, 5.025295 ], [ -73.80597, 5.0250633 ], [ -73.8057, 5.0248417 ], [ -73.80549, 5.024685 ], [ -73.8053467, 5.0245933 ], [ -73.8051267, 5.0245017 ], [ -73.8050333, 5.02445 ] ] } },
{ "type": "Feature", "properties": { "DIRECTION": "Vereda Gobernador Ancianato", "longitud": 232.21, "vereda": "GOBERNADOR" }, "geometry": { "type": "LineString", "coordinates": [ [ -73.8078267, 5.0272067 ], [ -73.8079817, 5.0273867 ], [ -73.80814, 5.0276967 ], [ -73.8082783, 5.02806 ], [ -73.808323300000012, 5.0283033 ], [ -73.8083383, 5.0284883 ], [ -73.808255, 5.02904 ], [ -73.8082433, 5.0291733 ] ] } },
{ "type": "Feature", "properties": { "DIRECTION": null, "longitud": 124.74, "vereda": "GOBERNADOR" }, "geometry": { "type": "LineString", "coordinates": [ [ -73.8082267, 5.029165 ], [ -73.80822, 5.0294267 ], [ -73.8082767, 5.02986 ], [ -73.8084033, 5.03027 ] ] } },
{ "type": "Feature", "properties": { "DIRECTION": null, "longitud": 84.24, "vereda": "BOITIVA" }, "geometry": { "type": "LineString", "coordinates": [ [ -73.7897167, 5.04528 ], [ -73.7896567, 5.0454767 ], [ -73.7895033, 5.0457617 ], [ -73.789355, 5.04594 ] ] } },
{ "type": "Feature", "properties": { "DIRECTION": "Vereda Boitiva San Roque", "longitud": 72.63, "vereda": "BOITIVA" }, "geometry": { "type": "LineString", "coordinates": [ [ -73.7888717, 5.0475767 ], [ -73.7883283, 5.04721 ] ] } },
{ "type": "Feature", "properties": { "DIRECTION": null, "longitud": 87.99, "vereda": "BOITIVA" }, "geometry": { "type": "LineString", "coordinates": [ [ -73.7883133, 5.0472 ], [ -73.7876767, 5.046725 ] ] } },
{ "type": "Feature", "properties": { "DIRECTION": "Vereda Nescuata La villa", "longitud": 119.68, "vereda": "NESCUATA" }, "geometry": { "type": "LineString", "coordinates": [ [ -73.7858167, 5.0519133 ], [ -73.7858933, 5.05202 ], [ -73.785875, 5.0521283 ], [ -73.7858017, 5.05238 ], [ -73.7856767, 5.052945 ] ] } },
{ "type": "Feature", "properties": { "DIRECTION": "Vereda Nescuata", "longitud": 124.36, "vereda": "NESCUATA" }, "geometry": { "type": "LineString", "coordinates": [ [ -73.78518, 5.0512817 ], [ -73.7846733, 5.0508233 ], [ -73.7843567, 5.0505183 ] ] } },
{ "type": "Feature", "properties": { "DIRECTION": "Vereda Nescuata", "longitud": 88.64, "vereda": "BOITIVA" }, "geometry": { "type": "LineString", "coordinates": [ [ -73.7843183, 5.050505 ], [ -73.7839217, 5.0502167 ], [ -73.7836517, 5.050065 ] ] } },
{ "type": "Feature", "properties": { "DIRECTION": "Vereda Espigas", "longitud": 21.86, "vereda": "NESCUATA" }, "geometry": { "type": "LineString", "coordinates": [ [ -73.781015, 5.05037 ], [ -73.781185, 5.05047 ] ] } },
{ "type": "Feature", "properties": { "DIRECTION": "Vereda Nescuata", "longitud": 125.37, "vereda": "NESCUATA" }, "geometry": { "type": "LineString", "coordinates": [ [ -73.7811633, 5.050475 ], [ -73.7821583, 5.0510133 ] ] } },
{ "type": "Feature", "properties": { "DIRECTION": "Vereda Nescuata", "longitud": 78.32, "vereda": "NESCUATA" }, "geometry": { "type": "LineString", "coordinates": [ [ -73.7821417, 5.0510317 ], [ -73.7827367, 5.0514133 ] ] } },
{ "type": "Feature", "properties": { "DIRECTION": "Vereda Nescuata", "longitud": 78.99, "vereda": "NESCUATA" }, "geometry": { "type": "LineString", "coordinates": [ [ -73.7834467, 5.0522067 ], [ -73.7840117, 5.0526417 ] ] } },
{ "type": "Feature", "properties": { "DIRECTION": "Vereda Boitiva las Brisas", "longitud": 105.05, "vereda": "BOITIVA" }, "geometry": { "type": "LineString", "coordinates": [ [ -73.78891, 5.05048 ], [ -73.7891783, 5.0501317 ], [ -73.7892033, 5.0501233 ], [ -73.7892483, 5.0501217 ], [ -73.78959, 5.050395 ] ] } },
{ "type": "Feature", "properties": { "DIRECTION": "Vereda Boitiva Las Brisas", "longitud": 103.2, "vereda": "BOITIVA" }, "geometry": { "type": "LineString", "coordinates": [ [ -73.79072, 5.0514533 ], [ -73.790845, 5.0510683 ], [ -73.7910033, 5.0506883 ], [ -73.7910367, 5.0505767 ] ] } },
{ "type": "Feature", "properties": { "DIRECTION": null, "longitud": 45.91, "vereda": "BOITIVA" }, "geometry": { "type": "LineString", "coordinates": [ [ -73.7943917, 5.0532417 ], [ -73.79406, 5.0529933 ] ] } },
{ "type": "Feature", "properties": { "DIRECTION": null, "longitud": 81.97, "vereda": "NESCUATA" }, "geometry": { "type": "LineString", "coordinates": [ [ -73.7806133, 5.0541183 ], [ -73.7805633, 5.0540017 ], [ -73.780295, 5.0538333 ], [ -73.7800967, 5.0537067 ], [ -73.7800467, 5.0536717 ] ] } },
{ "type": "Feature", "properties": { "DIRECTION": "Vereda Espigas la Rastra", "longitud": 73.1, "vereda": "ESPIGAS" }, "geometry": { "type": "LineString", "coordinates": [ [ -73.77535, 5.0554833 ], [ -73.7753617, 5.05553 ], [ -73.7754533, 5.0555667 ], [ -73.7755533, 5.0555967 ], [ -73.77582, 5.0557017 ], [ -73.77594, 5.0557217 ] ] } },
{ "type": "Feature", "properties": { "DIRECTION": "Vereda Espigas La Rastra", "longitud": 10.93, "vereda": "ESPIGAS" }, "geometry": { "type": "LineString", "coordinates": [ [ -73.775905, 5.0558183 ], [ -73.77593, 5.05577 ], [ -73.77592, 5.0557267 ] ] } },
{ "type": "Feature", "properties": { "DIRECTION": "Vereda Espigas La Rastra", "longitud": 102.29, "vereda": "ESPIGAS" }, "geometry": { "type": "LineString", "coordinates": [ [ -73.7759433, 5.0557217 ], [ -73.7763217, 5.0558267 ], [ -73.7766933, 5.05587 ], [ -73.7768467, 5.0558967 ] ] } },
{ "type": "Feature", "properties": { "DIRECTION": null, "longitud": 184.05, "vereda": "NESCUATA" }, "geometry": { "type": "LineString", "coordinates": [ [ -73.7767417, 5.0583633 ], [ -73.7767217, 5.05831 ], [ -73.7766, 5.058305 ], [ -73.77643, 5.0583817 ], [ -73.7763817, 5.0583733 ], [ -73.7763633, 5.058305 ], [ -73.7763633, 5.0582 ], [ -73.77631, 5.0580367 ], [ -73.7761167, 5.0578467 ], [ -73.7760067, 5.0577717 ], [ -73.7757917, 5.0576533 ], [ -73.7757433, 5.0575417 ], [ -73.7757567, 5.0574133 ] ] } },
{ "type": "Feature", "properties": { "DIRECTION": "Vereda Nescuata", "longitud": 24.67, "vereda": "ESPIGAS" }, "geometry": { "type": "LineString", "coordinates": [ [ -73.7704533, 5.0601333 ], [ -73.7705583, 5.06033 ] ] } },
{ "type": "Feature", "properties": { "DIRECTION": "Vereda Nescuata", "longitud": 127.01, "vereda": "NESCUATA" }, "geometry": { "type": "LineString", "coordinates": [ [ -73.7705583, 5.0603417 ], [ -73.7707467, 5.060755 ], [ -73.7709283, 5.0610167 ], [ -73.771235, 5.0612317 ] ] } },
{ "type": "Feature", "properties": { "DIRECTION": "Vereda Nescuata", "longitud": 37.03, "vereda": "NESCUATA" }, "geometry": { "type": "LineString", "coordinates": [ [ -73.7712217, 5.0612417 ], [ -73.7715, 5.0614267 ] ] } },
{ "type": "Feature", "properties": { "DIRECTION": "Vereda Nescuata", "longitud": 98.48, "vereda": "NESCUATA" }, "geometry": { "type": "LineString", "coordinates": [ [ -73.7725367, 5.0619783 ], [ -73.7728217, 5.0622517 ], [ -73.7732333, 5.062525 ] ] } },
{ "type": "Feature", "properties": { "DIRECTION": "Vereda Nescuata", "longitud": 54.81, "vereda": "NESCUATA" }, "geometry": { "type": "LineString", "coordinates": [ [ -73.7781767, 5.06005 ], [ -73.7783667, 5.0602917 ], [ -73.778475, 5.060445 ] ] } },
{ "type": "Feature", "properties": { "DIRECTION": null, "longitud": 108.23, "vereda": "NESCUATA" }, "geometry": { "type": "LineString", "coordinates": [ [ -73.779175, 5.0678567 ], [ -73.7790983, 5.0675183 ], [ -73.77895, 5.0670483 ], [ -73.77889, 5.0669233 ] ] } },
{ "type": "Feature", "properties": { "DIRECTION": "Vereda Espigas", "longitud": 35.52, "vereda": "ESPIGAS" }, "geometry": { "type": "LineString", "coordinates": [ [ -73.7836401, 5.0336799 ], [ -73.7835867, 5.0337712 ], [ -73.7835314, 5.0337575 ], [ -73.7834788, 5.0337241 ], [ -73.783428, 5.033643 ] ] } },
{ "type": "Feature", "properties": { "DIRECTION": null, "longitud": 47.72, "vereda": "ESPIGAS" }, "geometry": { "type": "LineString", "coordinates": [ [ -73.7886246, 5.0343611 ], [ -73.7888674, 5.0342915 ], [ -73.7890449, 5.034282 ] ] } },
{ "type": "Feature", "properties": { "DIRECTION": "Vereda Espigas", "longitud": 46.54, "vereda": "ESPIGAS" }, "geometry": { "type": "LineString", "coordinates": [ [ -73.793348, 5.035508 ], [ -73.7934555, 5.0354339 ], [ -73.7935273, 5.0354643 ], [ -73.7935489, 5.0355002 ], [ -73.793548, 5.0355528 ], [ -73.7935378, 5.0356697 ] ] } },
{ "type": "Feature", "properties": { "DIRECTION": "Vereda Salinas", "longitud": 51.96, "vereda": "SALINAS" }, "geometry": { "type": "LineString", "coordinates": [ [ -73.8383817, 5.0111533 ], [ -73.8384833, 5.0109533 ], [ -73.8385983, 5.0107367 ] ] } },
{ "type": "Feature", "properties": { "DIRECTION": null, "longitud": 43.52, "vereda": "SALINAS" }, "geometry": { "type": "LineString", "coordinates": [ [ -73.8413233, 5.0051783 ], [ -73.8413417, 5.004985 ], [ -73.8413583, 5.0048383 ], [ -73.841355, 5.0047867 ] ] } },
{ "type": "Feature", "properties": { "DIRECTION": "Vereda espigas", "longitud": 69.38, "vereda": "ESPIGAS" }, "geometry": { "type": "LineString", "coordinates": [ [ -73.7721091, 5.0462964 ], [ -73.7720864, 5.04641 ], [ -73.7721085, 5.0465811 ], [ -73.7722154, 5.0466685 ], [ -73.7723944, 5.0467582 ] ] } },
{ "type": "Feature", "properties": { "DIRECTION": "Vereda espigas", "longitud": 177.4, "vereda": "ESPIGAS" }, "geometry": { "type": "LineString", "coordinates": [ [ -73.7719893, 5.0505811 ], [ -73.7720122, 5.0507557 ], [ -73.7719851, 5.0511789 ], [ -73.7718758, 5.0512675 ], [ -73.771778, 5.05132 ], [ -73.7715305, 5.0515666 ], [ -73.7714477, 5.0517926 ], [ -73.7715501, 5.0518593 ], [ -73.7715864, 5.051846 ] ] } },
{ "type": "Feature", "properties": { "DIRECTION": "Vereda espigas", "longitud": 52.53, "vereda": "ESPIGAS" }, "geometry": { "type": "LineString", "coordinates": [ [ -73.7742192, 5.0536867 ], [ -73.7742569, 5.0538365 ], [ -73.7742503, 5.054157 ] ] } },
{ "type": "Feature", "properties": { "DIRECTION": "Vereda espigas", "longitud": 127.88, "vereda": "ESPIGAS" }, "geometry": { "type": "LineString", "coordinates": [ [ -73.7742237, 5.0541323 ], [ -73.7743719, 5.0543867 ], [ -73.7745309, 5.0545298 ], [ -73.7747092, 5.054681 ], [ -73.7748354, 5.0549544 ], [ -73.7749032, 5.0550436 ] ] } }
]
}
